id,name,mission,phone,fax,email,address,municipality,state,zip,web,creatorId,createdAt,updatedAt
1,Secretaria de Desarrollo Económico de Caguas,,,,,,,,,,1,2014-09-10 09:37:30.288-07,2014-09-10 09:37:30.288-07
2,PromoExport,,,,,,,,,,1,2014-09-10 09:37:30.289-07,2014-09-10 09:37:30.289-07
4,PROMOCAGUAS,,,,,,,,,,1,2014-09-10 09:37:30.313-07,2014-09-10 09:37:30.313-07
8,Oficina de Exención Contributiva Industrial,,,,,,,,,,1,2014-09-10 09:37:30.314-07,2014-09-10 09:37:30.314-07
9,Antrocket.com,,,,,,,,,,1,2014-09-10 09:37:30.315-07,2014-09-10 09:37:30.315-07
11,Administración de Asuntos Energéticos (Dpto. Desarrollo Económico),"El Plan de Reorganización Número 4 de 9 de diciembre de 1993, mediante el Artículo 7 adscribe a la Administración de Asuntos de Energía (AAE) como parte del Departamento de Recursos Naturales y Ambientales. La Oficina de Energía de Puerto Rico fue creada, en su origen, por la Ley Núm. 128 de 29 de junio de 1977, según enmendada, estableciendo en dicho estatuto sus propósitos, funciones y deberes. Implantar la política pública para el desarrollo de un futuro energético más eficiente, más económico y ambientalmente sostenible en términos de conservación de energía, así como desarrollar fuentes alternas y renovables de energía y programas relacionados al manejo, utilización, protección y conservación de los recursos energéticos de Puerto Rico.",787-332-0914,787-332-0915,,"209 Calle Manuel Camuñas, Esq. Ave César González, Urb. Industrial Tres Monjitas",Hato Rey,,0,http://www.aae.pr.gov,1,2014-09-10 12:58:25.402-07,2014-09-10 12:58:25.402-07
12,Administración de Asuntos Federales de Puerto Rico (PRFAA),La misión de PRFAA es representar los intereses de los puertorriqueños en los Estados Unidos para así promover su bienestar en la Isla y en nuestras comunidades en los 50 estados.,(202) 778-0710,(202) 778-0721,,"1100 17th Street, NW, Suite 800","Washington, DC",,20036,http://www.prfaa.com/,1,2014-09-10 12:58:25.402-07,2014-09-10 12:58:25.402-07
13,Administración de Corrección (Dpto. Corrección),"La Administración de Corrección se creó por la Ley Núm. 116 de 22 de julio de 1974; según enmendada. Está adscrita al Departamento de Corrección y Rehabilitación conforme con el Plan de Reorganización Número 3 de 1993. Contribuir a garantizar la seguridad pública mediante la custodia, tratamiento y servicios dirigidos a la rehabilitación de las personas convictas y confinadas por órdenes de los Tribunales de Justicia Estatal y Federal en nuestras instituciones y en la libre comunidad.",787) 273-6464; (787) 273-6464; (787) 273-6464,(787) 792-7677,,"Urb. Industrial Tres Monjitas, Ave. Teniente César González Esq. Calaf",San Juan,,0,http://www.ac.gobierno.pr,1,2014-09-10 12:58:25.402-07,2014-09-10 12:58:25.402-07
14,Administración de Desarrollo Socioeconómico de la Familia (Dpto. Familia),"La Administración de Desarrollo Socioeconómico de la Familia se creó mediante el Plan de Reorganización Número 1 aprobado el 28 de julio de 1995. Facilitar oportunidades de desarrollo a las personas en desventaja social y económica para que las familias en Puerto Rico logren la autosuficiencia, la integración al sistema social de manera productiva, además de la buena convivencia familiar y comunitaria.",(787) 289-7600,(787) 289-1199,,"Ave. Ponce de León Núm. 800, Capitol Office Building, piso 8 y 9",Miramar,,0,http://servicios.adsef.pr.gov/,1,2014-09-10 12:58:25.403-07,2014-09-10 12:58:25.403-07
15,Administración de Compensaciones por Accidentes de Automoviles (ACAA),"La Ley Orgánica de la Administración de Compensación por Accidentes de Automóviles es la Ley Núm. 138 del 26 de junio de 1968, según enmendada, conocida como ""Ley de Protección Social por Accidentes de Automóviles"". Reducir los efectos económicos y sociales que tienen los accidentes de tránsito sobre la familia y demás dependientes de sus víctimas, proporcionando a éstas: Servicios Médico-Hospitalarios, Compensación por Pérdida de Ingreso (incapacidad),Compensación por Muerte. Compensación por Desmembramiento, Compensación por Gastos Fúnebres,",(787) 759-8989,(787) 753-1713,,Arterial Hostos Esquina #249 Ave. Chardón piso 10,Hato Rey,,918,http://www.acaa.gobierno.pr/,1,2014-09-10 12:58:25.402-07,2014-09-10 12:58:25.402-07
16,Administración de Desarrollo Laboral (ADL),"Ley Núm. 15 del 14 de abril de 1931, Ley Orgánica del Departamento del Trabajo de Puerto Rico. Esta fue ratificada por la Constitución del Estado Libre Asociado de Puerto Rico en el 1952. La Ley Núm. 100 del 23 de junio de 1977, lo redenomina como Departamento del Trabajo y Recursos Humanos. El Plan de Reorganización 2 de mayo de 1994, crea la estructura organizativa. ""El Plan de Reorganizacion Num. 4 del 9 de diciembre de 2011 enmienda la Ley 97-1991, segun enmendada que crea al Consejo de Desarrollo Ocupacional y Recursos Humanos (CDORH),para redenominarlo como la Administracion de Desarrollo Laboral, a fin de atemperar la ley a las disposiciones federales aplicables y asegurar la efectiva implantacion, diseño, promulgacion e instauracion de la politica publica en relacion con el Sistema de Desarrollo Ocupacional y Recursos Humanos"".",(787) 754-5504,(787) 763-0195,,"Ave. FD Roosvelt #355, Fomento Industrial, Piso 2","Hato Rey, PR, 00918",,0,http://adl.pr.gov,1,2014-09-10 12:58:25.402-07,2014-09-10 12:58:25.402-07
17,Administración de los Sistemas de Retiro de los Empleados del Gobierno y la Judicatura (ASR),Administrar y custodiar un fondo de retiro para que empleados del Gobierno y la Judicatura cuenten con un ingreso asegurado tras haberle dedicado años fructíferos de su vida al bien común.,1-877-777-2020,(787) 250-7251,,Ave. Ponce de León #437,Hato Rey,,918,http://www.asr.pr.gov,1,2014-09-10 12:58:25.404-07,2014-09-10 12:58:25.404-07
18,Administración de Rehabilitación Vocacional (ARV),"Plan de Reorganización Número 1, aprobado el 28 de julio de 1995. La Ley Número 97 de 10 de junio de 2000 que adscribe la agencia al Departamento del Trabajo y Recursos Humanos. Promover y ubicar a las personas con impedimentos en un empleo remunerado y facilitarles una vida más independiente mediante la prestación de servicios de rehabilitación vocacional, consistente con sus fortalezas, recursos, prioridades, intereses, habilidades y capacidades; para que logren mejorar su calidad de vida, su capacidad de autosuficiencia y su auto-estima.",(787) 729-0160,(787) 728-8070,,"Ave. Ponce de León Edif. Mercantil Plaza, piso 8",Hato Rey,,0,http://www.arv.pr.gov,1,2014-09-10 12:58:25.404-07,2014-09-10 12:58:25.404-07
19,Administración de Servicios de Salud Mental y Contra la Adicción (Dpto. Salud),"Ley Núm. 67 del 7 de agosto de 1993, crea la Administración de Servicios de Salud Mental y Contra la Adicción. La Ley Núm. 408 del 2 de octubre de 2000, establece el nuevo Código de Salud Mental. Garantizar la prestación de servicios de prevención, tratamiento y rehabilitación en el área de salud mental, incluyendo abuso de sustancias, que sean accesibles, costo efectivos y de óptima calidad, ofrecidos en un ambiente de respeto y confidencialidad.",(787) 764-3670,(787) 995-5164,,"Carr. #2 km. 8.2 Bo. Juan Sanchez,",Bayamón,,956,http://www.assmca.pr.gov,1,2014-09-10 12:58:25.404-07,2014-09-10 12:58:25.404-07
3,Banco de Desarrollo Económico (Dpto. Desarrollo Económico),"Creado por virtud de la Ley Núm. 22 de 24 de julio de 1985, según enmendada, el Banco es líder y pionero en proveer innovadores programas de financiamiento a las pequeñas y medianas empresas contribuyendo así a la promoción del sector privado de la economía de Puerto Rico.<br />",781-0772,(787) 641-4282,"","Calle Aldebarán #638,",San Juan,AL,922,http://www.bde.pr.gov,1,2014-09-10 09:37:30.313-07,2014-09-10 13:27:47.962-07
27,Autoridad de Acueductos y Alcantarillados (AAA),"Proveer a los habitantes de Puerto Rico un servicio adecuado de agua potable, de alcantarillado sanitario y de cualquier otro servicio o facilidad incidental o propio de éstos. ",(787) 620-2277,(787) 756-2374,,Avenida Barbosa #604,Hato Rey,,917,http://www.acueductospr.com/,1,2014-09-10 12:58:25.406-07,2014-09-10 12:58:25.406-07
20,Administración de Servicios Médicos (Dpto. Salud),"La Ley Núm. 66 del 22 de junio de 1978 , según enmendada. Proveer servicios especializados de salud a pacientes, instituciones consumidoras y educativas con eficiencia, prontitud y respeto; así como brindar las herramientas necesarias para la formación de profesionales de salud, actuando como taller de enseñanza y de investigación científica con el objetivo de velar por el bienestar y salud de la ciudadanía en general.",(787) 777-3535,(787) 777-3408,,Edif.Central Centro Médico,Río Piedras,,0,http://www.asem.pr.gov,1,2014-09-10 12:58:25.404-07,2014-09-10 12:58:25.404-07
25,Agencia Estatal para el Manejo de Emergencias y Administración de Desastres (AEMEAD),"Coordinar todos los recursos gubernamentales del Estado Libre Asociado de Puerto Rico, y los del sector privado para proveer de la forma más rápida y efectiva los servicios antes, durante y después de situaciones de emergencia para asegurar la protección de la vida y propiedad de los ciudadanos. los del sector privado para proveer de la forma más rápida y efectiva los servicios antes, durante y después de situaciones de emergencia para asegurar la protección de la vida y propiedad de los ciudadanos. los del sector privado para proveer de la forma más rápida y efectiva los servicios antes, durante y después de situaciones de emergencia para asegurar la protección de la vida y propiedad de los ciudadanos.",(787) 724-0124,(787) 725-4244,,Calle Eleanor Roosevelt # 115,Hato Rey,,908,http://www.manejodeemergencias.pr.gov/,1,2014-09-10 12:58:25.405-07,2014-09-10 12:58:25.405-07
29,Autoridad de Deperdicios Sólidos (ADS),"Ley Núm. 70 del 23 de junio de 1978, enmendada, creó la Autoridad de Desperdicios Sólidos de Puerto Rico y el Plan de Reorganización Núm. 4 de 9 de diciembre de 1993, la adscribe como un componente del Departamento de Recursos Naturales y Ambientales. Evaluar, planificar, desarrollar e implantar la infraestructura para el manejo eficiente de los desperdicios sólidos del país. Además, de estrategias para el manejo adecuado de los residuos sólidos para proteger el ambiente, la salud pública y conservar los recursos naturales de Puerto Rico.",764-0364,(787) 753-2220,,"Sector El 5, Carr. 8838, Km. 6.3, Edificio Agencias Ambientales, Piso 6,",San Juan,,940,http://www.ads.pr.gov,1,2014-09-10 12:58:25.406-07,2014-09-10 12:58:25.406-07
34,Autoridad de Transporte Marítimo (Dpto. DTOP),Proveer Servicio de Transportación marítimo de carga y pasajeros entre Puerto Rico y las Islas Municipios de Vieques y Culebra.,"787-497-7740 SJ , 787-494-0934 - Fajardo e Islas Municipio",787-860-6041 / 787-860-3580,,"Calle #100, Playa Puerto Real",Fajardo,,0,"",1,2014-09-10 12:58:25.406-07,2014-09-10 12:58:25.406-07
39,Autoridad para el Financiamiento de la Infraestructura de Puerto Rico (AFI),"La Ley Núm. 44 de 21 de junio de 1988, según enmendada, crea la Autoridad para el Financiamiento de la Infraestructura (AFI). Establecer mecanismos para conceder asistencia financiera, administrativa y de otra índole a corporaciones públicas para desarrollar facilidades y mejoras a la infraestructura que contribuyan al desarrollo económico de Puerto Rico.",(787) 763-5757,(787) 763-1605,,"Antiguo Western Plaza, Piso 4, Hato Rey",Hato Rey,,940,http://www.afi.pr.gov,1,2014-09-10 12:58:25.407-07,2014-09-10 12:58:25.407-07
42,Banco Gubernamental de Fomento (BGF),"Promover la competitividad y la estabilidad fiscal de Puerto Rico para transformar nuestra economía en una de las más desarrolladas del mundo, contribuyendo así al bienestar social y económico de nuestra población. Servir como banco, agente fiscal y asesor financiero del Estado Libre Asociado de Puerto Rico y de las agencias, organismos,comisiones, autoridades, municipios y subdivisiones políticas de Puerto Rico. Promover la competitividad y la estabilidad fiscal de Puerto Rico para transformar nuestra economía en una de las más desarrolladas del mundo, contribuyendo así al bienestar social y económico de nuestra población. Servir como banco, agente fiscal y asesor financiero del Estado Libre Asociado de Puerto Rico y de las agencias, organismos, comisiones, autoridades, municipios y subdivisiones políticas de Puerto Rico.",722-8460,(787) 721-1443,,"Ave. José de Diego, Centro Gubernamental Minillas",Santurce,,940,http://www.gdb-pur.com/home.htm,1,2014-09-10 12:58:25.408-07,2014-09-10 12:58:25.408-07
47,Comisión Apelativa del Servicio Público (CASP),"<div>La Comisión Apelativa del Servicio Público (CASP), se creó en virtud del Plan de Reorganización Núm. 2 aprobado el 26 de julio de 2010, al fusionar la Comisión Apelativa del Sistema de Administración de Recursos Humanos del Servicio Público (CASARH) y la Comisión de Relaciones del Trabajo del Servicio Público (CRTSP). La Comisión actúa como un organismo cuasi-judicial en la Rama Ejecutiva, especializado en asuntos obrero patronales y del principio de mérito atendiendo casos laborales, de querellas y de administración de recursos humanos, tanto para los empleados que negocian sus condiciones de trabajo al amparo de la Ley Núm. 45 de 1998, según enmendada, conocida como la ""Ley de Relaciones del Trabajo para el Servicio Público de Puerto Rico"", como para los empleados públicos cubiertos por la Ley Núm. 184 de 2004, según enmendada, conocida como “Ley para la Administración de los Recursos Humanos en el Estado Libre Asociado de Puerto Rico”.&nbsp; Además la (CASP) atiende aquellos casos al amparo de la Ley Núm. 333 de 2004, según enmendada, conocida como la “Carta de Derechos de los Empleados de una Organización Laboral”</div>",(787)723-4242,Fax (787) 723-1359,,"Ave. Ponce de León 1409, Pda. 20, Edificio CEM, Sexto piso",Santurce,,0,http://www.casp.pr.gov,1,2014-09-10 12:58:25.409-07,2014-09-10 12:58:25.409-07
51,Comisión de Servicio Público (CSP),"Participar en forma activa y sustancial en el desarrollo económico y social de Puerto Rico. Comprometidos a convertir esta última en una Agencia Pública que se distinga por la prestación de unos servicios con eficiencia e integridad, de manera de lograr nuestros objetivos. No obstante, para lograr los objetivos necesitamos contar con la mejor tecnología y con el recurso humano capacitado que la compone.","756-1401, 1402 y 1403",(787) 756-8086,,"Calle Bori 1608, Carretera # 1, Edificio La Electrónica, 1er Piso",Río Piedras,,0,http://www.csp.gobierno.pr,1,2014-09-10 12:58:25.41-07,2014-09-10 12:58:25.41-07
55,Comision Permanentes sobre los Sistemas de Retiro,"","(787) 641-2021 ext. 6910, 6911",787-200-7068,,"Plaza AEELA, 3er piso #463 Avenida Ponce de León","Hato Rey, Puerto Rico",,0,http://www.cepsr.pr.gov/,1,2014-09-10 12:58:25.41-07,2014-09-10 12:58:25.41-07
60,Compañía para el Desarrollo Integral de la Península de Cantera,"Ley Núm. 20 de 10 de julio de 1992, Ley Orgánica de la Compañía para el Desarrollo Integral de la Península de Cantera. Asegurar el desarrollo social, económico y cultural de la comunidad de la Península de Cantera en esfuerzo conjunto con dicha comunidad, el Estado Libre Asociado, el Municipio de San Juan y el sector privado.",268-3138 / 727-0278,787-727-0278,,"Calle Constitución, Final Sector Bravos de Boston, Cantera",Santurce,,0,"",1,2014-09-10 12:58:25.411-07,2014-09-10 12:58:25.411-07
65,Corporación de PR para la Difusión Pública (WIPR),"Ley Núm. 216 de 12 de septiembre de 1996 <br>Operar los medios de comunicación pertenecientes al pueblo de Puerto Rico para contribuir al desarrollo social, educativo y cultural, así como al entretenimiento de la ciudadanía. ",763-1063,(787) 753-9846,,"570 Ave. Hostos, Urb. Baldrich",Hato Rey,,0,http://www.prnet.pr/,1,2014-09-10 12:58:25.411-07,2014-09-10 12:58:25.411-07
21,Administración de Vivienda Pública (Dpto. Vivienda),"Asegurar el mantenimiento, la rehabilitación y administración efectiva de los proyectos de vivienda pública para incrementar la disponibilidad de vivienda asequible, propiciar el desarrollo económico y mejorar la calidad de vida de las familias hasta alcanzar la autosuficiencia. Asegurar el mantenimiento, la rehabilitación y administración efectiva de los proyectos de vivienda pública para incrementar la disponibilidad de vivienda asequible, propiciar el desarrollo económico y mejorar la calidad de vida de las familias hasta alcanzar la autosuficiencia.",(787) 759-9407,(787) 763-2484,,"Avenida Barbosa #606 Edif. Juan C. Cordero, Piso 9",Río Piedras,,0,http://www.avp.pr.gov,1,2014-09-10 12:58:25.405-07,2014-09-10 12:58:25.405-07
24,Administración para el Desarrollo de Empresas Agropecuarias (Dpto. Agricultura),<div>&nbsp;&nbsp;&nbsp;&nbsp;&nbsp;&nbsp;&nbsp;&nbsp;&nbsp;&nbsp;&nbsp; </div>,787-474-7364 ext. 224/227,787-331-0720,,"Edificio Tres Río, Piso 5 Ave. Martinez Nadal, Esq. Gonzales Giusti",Guaynabo,,0,http://www.agricultura.pr.gov/,1,2014-09-10 12:58:25.405-07,2014-09-10 12:58:25.405-07
30,Autoridad de Edificios Públicos (AEP),"La Autoridad de Edificios Públicos de Puerto Rico tiene la Misión de planificar, diseñar, subastar, construir y conservar las facilidades físicas para todas las agencias y ofrecerle al pueblo de Puerto Rico las mejores estructuras para su uso y disfrute elevando la calidad de vida.",725-7120 / 728-5360 / 723-6635,(787) 724-1533,,"Ave. José De Diego, Centro Gubernamental Minillas, Torre Norte, Piso 6",Santurce,,940,http://www.aep.pr.gov,1,2014-09-10 12:58:25.406-07,2014-09-10 12:58:25.406-07
35,Autoridad del Distrito del Centro de Convenciones de Puerto Rico (Dpto. Desarrollo Económico),"Ley Núm. 400 del 9 de septiembre de 2000 , crea la Autoridad del Centro de Convenciones de Puerto Rico. La Ley Núm. 142 de 4 de octubre de 2001 , derogó la Ley Núm. 400 de 9 de septiembre de 2000 , y enmendó la Ley Núm. 351 de 2 de septiembre de 2000 para crear la Autoridad del Distrito del Centro de Convenciones de Puerto Rico, incorporando en un solo organismo a la Autoridad del Centro de Convenciones de Puerto Rico y la Corporación del Distrito de Comercio Mundial de las Américas.",(787) 300-6700,"",,"100 Convention Boulevard, Miramar",San Juan,,907,http://www.prconventiondistrict.com,1,2014-09-10 12:58:25.407-07,2014-09-10 12:58:25.407-07
40,Autoridad para las Alianzas Público Privadas (Banco Gubernamental),&nbsp;,"",(787) 728-0963,,"Banco Gubernamental de Fomento, Centro Gubernamental Minillas (Roberto Sánchez Vilella) Ave. De Diego, Pda 22",Santurce,,907,http://www.app.pr.gov,1,2014-09-10 12:58:25.407-07,2014-09-10 12:58:25.407-07
45,Centro de Recaudaciones de Ingresos Municipales (CRIM),"",(787) 625-4072,(787) 625-1459,,"Carretera Estatal 1, Km. 17.2",Río Piedras,,0,http://www.crimpr.net/,1,2014-09-10 12:58:25.408-07,2014-09-10 12:58:25.408-07
50,"Comisión de Investigación, Procesamiento y Apelación (CIPA)","Ley Núm. 32 de 22 de mayo de 1972, según enmendada, Ley Orgánica de la Comisión de Investigación, Procesamiento y Apelación. Ley Núm. 238 de 30 de agosto de 2000, amplía la jurisdicción de la CIPA a los Policías Municipales. Proteger los derechos de los ciudadanos que son afectados por acciones excedidas de funcionarios con facultad para efectuar arrestos, así como los derechos de estos funcionarios cuando la autoridad nominadora le impone sanciones disciplinarias para hacer justicia social a dichos grupos.",723-0961 / 723-268,(787) 723-2685,,1307 Ave. Fernández Juncos,Santurce,,0,http://www.cipa.pr.gov,1,2014-09-10 12:58:25.409-07,2014-09-10 12:58:25.409-07
61,Consejo de Educación de Puerto Rico (CEPR),"Consejo de Educación de Puerto Rico tiene como propósito esencial fomentar y promover las condiciones que permitan asegurar el acceso de todos los ciudadanos a una educación de calidad, en el nivel y modalidad que la requieran y en el lugar donde la demanden.&nbsp; Al mismo tiempo fomentar los valores que aseguren una convivencia solidaria y comprometida, y que se procure el desarrollo de las competencias necesarias para que la actividad económica de Puerto Rico genere una alta calidad de vida.",787-641-7100,(787) 641-2573,,"Ave. Ponce de León 268, Edificio Hato Rey Center, Suite 1500",Hato Rey,,0,http://www.ce.pr.gov,1,2014-09-10 12:58:25.411-07,2014-09-10 12:58:25.411-07
67,Corporación del Centro Bellas Artes (CBA),"La Ley Núm. 43 de 12 de mayo de 1980, según enmendada, crea la Corporación del Centro de Bellas Artes de Puerto Rico. Ofrecer al pueblo de Puerto Rico y a los visitantes de otros países la oportunidad de conocer mejor las bellas artes en el ámbito nacional e internacional, a través de actividades realizadas en las mejores instalaciones de presentación en el país para enriquecer nuestra vida cultural y facilitar los mejores escenarios, servicios y oportunidades de trabajo a la clase artística.",(787) 724-6960 / (787) 723-6977,(787) 721-2223,,Ave. Ponce de León Parada 22 1/2,Santurce,,0,http://www.cba.gobierno.pr,1,2014-09-10 12:58:25.412-07,2014-09-10 12:58:25.412-07
71,"Corporación para el Desarrollo de las Artes, Ciencias e Industria Cinematográfica (Dpto. Desarrollo Económico)","Ley Núm. 121 de 17 de agosto de 2001, crea la Corporación para el Desarrollo de las Artes, Ciencias e Industria Cinematográfica de Puerto Rico adscrita al Departamento de Desarrollo Económico y Comercio y deroga la Ley Núm. 27 de 22 de agosto de 1994, según enmendada, que creó la Corporación para el Desarrollo del Cine de Puerto Rico. El Plan de Reorganización Número 4 de 22 de junio de 1994, según enmendado, crea el Departamento de Desarrollo Económico y Comercio y adscribe a dicho Departamento a la Corporación para el Desarrollo del Cine en Puerto Rico. Fomentar el desarrollo económico de Puerto Rico, promoviendo una industria cinematográfica vigorosa. Promover y generar producciones fílmicas y crear más y mejores empleos en la clase artística y técnica de Puerto Rico.",754-7110,(787) 756-5706,,"355 Ave. F.D. Roosevelt, Edificio de Fomento",Hato Rey,,918,http://www.puertoricofilm.com,1,2014-09-10 12:58:25.413-07,2014-09-10 12:58:25.413-07
117,Oficina del Comisionado Residente en Washington,El Comisionado Residente es un miembro de la Cámara de Representantes federal que por mandato de ley representa al Gobierno del Estado Libre Asociado y al Pueblo de Puerto Rico ante todo el Gobierno de los Estados Unidos.,"(787)723-6333 , DC (202) 225-2615","(787)729-7738 , DC (202) 225-2514",,"157 Ave. de la Constitución, Edificio Medicina Tropical, 2do Piso",Puerta de Tierra,,0,http://pierluisi.house.gov/,1,2014-09-10 12:58:25.419-07,2014-09-10 12:58:25.419-07
22,Administración del Derecho al Trabajo (Dpto. Trabajo),"La Ley Núm. 115 de 21 de junio de 1968, según enmendada, conocida como Ley del Derecho al Trabajo creó la Administración. El Plan de Reorganización Núm. 2 del 4 de mayo de 1994, que reorganiza el Departamento del Trabajo y Recursos Humanos y adscribe la Administración del Derecho al Trabajo al Departamento. Combatir el desempleo en Puerto Rico promoviendo el desarrollo de los recursos humanos mediante el establecimiento de un sistema de servicios integrados donde nuestra fuerza laboral tenga acceso universal a servicios de orientación, información del mercado laboral, evaluación de destrezas, consejería, referidos a programas de adiestramiento y educación, colocación y retención de empleo, integrando al sector empresarial.",754-5691 /90/92,(787) 758-0690,,Edificio Metro Center Piso 12 y PH Calle Mayagüez Esq. C/ Cidra,Hato Rey,,918,"",1,2014-09-10 12:58:25.405-07,2014-09-10 12:58:25.405-07
32,Autoridad de los Puertos (AP),"La Ley Núm. 17 del 19 de abril de 1955, según enmendada, otorga el nombre de Autoridad de los Puertos a la agencia creada por la Ley 125 del 7 de mayo de 1942 y que se conocía como Autoridad de Transporte. La Autoridad de los Puertos se rige por el Plan de Reorganización Núm. 6 de 1971. Dicho plan de reorganización separa la Autoridad de los Puertos de la Administración de Fomento Económico y la adscribe al Departamento de Transportación y Obras Públicas. A su vez se transfieren al Secretario de Transportación y Obras Públicas los poderes, facultades y funciones que el Administrador de Fomento Económico y los miembros de la Autoridad tienen respecto a la Autoridad de los Puertos conforme a la ley orgánica de dicha Autoridad y a otras leyes especiales que le asignan funciones. La Autoridad de los Puertos provee a los servidores industriales, comerciales y turísticos y al público en general los servicios relacionados con la transportación aérea y marítima para contribuir al desarrollo de la infraestructura económica de Puerto Rico.","787-729-8715, 787-729-8462",(787) 722-7867,,"Calle Lindberg #64, Isla Grande Miramar",Isla Grande,,907,http://www.prpa.pr.gov,1,2014-09-10 12:58:25.406-07,2014-09-10 12:58:25.406-07
36,Autoridad del Puerto de Las Américas (APA),"",787-848-4955,787-840-4681,,"Ave. Santiago de los Caballeros final, Ponce Playa","",,0,"",1,2014-09-10 12:58:25.407-07,2014-09-10 12:58:25.407-07
46,Colegio Universitario de Justicia Criminal (Académia de la Policía),"La misión del Colegio Universitario de Justicia Criminal de Puerto Rico es educar profesionales en el campo de la seguridad pública, con amplia maestría de las técnicas más modernas y un profundo entendimiento de los elementos que afectan el comportamiento humano. Los ofrecimientos académicos de la Instituci6n están enfocados con un currículo profesional enmarcado por una formación liberal humanística, la cual integra la tecnología como un instrumento útil y poderoso. Todo esto esta dirigido hacia un desarrollo hoIístico del estudiante. De esta forma están colocados los cimientos para la adquisición de las destrezas técnicas/científicas y conocimientos necesarios, al igual que las comunicaciones y la conducta ingeniosa para convertirse en un miembro productivo de la sociedad puertorriqueña y estar capacitado para contribuir al bienestar general de nuestra vida colectiva. Fortalecidos con una formación humanística, los graduados del Colegio habrán de formar una visión de responsabilidad social, compromiso profundo, ético - profesional y una amplia capacidad para disfrutar la vida.",(787) 737-8351,(787) 737-7619,,"Carr. 189, Km 102, Entrando por Cementerio Municipal a mano derecha",Gurabo,,0,http://quieroserpoliciapr.com/,1,2014-09-10 12:58:25.409-07,2014-09-10 12:58:25.409-07
52,Comisión Estatal de Elecciones (CEE),"Ley Núm. 4 del 20 de diciembre de 1977 , según enmendada, conocida como ""Ley Electoral de Puerto Rico"", dispone la creación de la Comisión Estatal de Elecciones. Garantizar a todos los electores su derecho a ejercer el voto en todos los procesos eleccionarios, en forma igual, secreta, directa, libre y democrática, según se consagra en la Constitución de Puerto Rico, mediante un proceso transparente y eficiente que reafirme la credibilidad de nuestro pueblo.",787-777-8675 / 787-296-0173,(787) 296-0173,,"550 Ave. Arterial B, Edif. Administrativo",Hato Rey,,0,http://www.ceepur.org/,1,2014-09-10 12:58:25.41-07,2014-09-10 12:58:25.41-07
57,Compañía de Fomento Industrial (Dpto. Desarrollo Económico),"Ley Núm. 203 de 29 de diciembre de 1997, según enmendada, derogó la Ley Núm. 423 de 14 de mayo de 1950, según enmendada y transfirió todos los poderes, facultades, y funciones de la Administración de Fomento Económico a la Compañía de Fomento Industrial. Plan de Reorganización Núm. 4 de 22 de junio de 1994, crea el Departamento de Desarrollo Económico y Comercio y se adscribe la Compañía de Fomento Industrial. Ley Núm. 188 de 11 de mayo de 1942, según enmendada. Crear y retener empleos para mejorar nuestra calidad de vida.",764-1175 / 753-6874,(787) 764-1415,,"355 Ave. F.D. Roosevelt, Edif. Formento Industrial, Suite 404",Hato Rey,,0,http://www.pridco.pr.gov,1,2014-09-10 12:58:25.41-07,2014-09-10 12:58:25.41-07
62,Corporación de Empresas de Adiestramiento y Trabajo (Dpto. Corrección),"La Ley Núm. 47 de agosto de 1991 , según enmendada, creó la Corporación de Empresas de Adiestramiento y Trabajo (C.E.A.T.). El Plan de Reorganización Núm. 3 del 9 de diciembre de 1993, creó el Departamento de Corrección y Rehabilitación y adscribe la Corporación como un componente operacional. Ampliar las oportunidades de empleo y reeducación de la clientela correccional y de justicia juvenil, para que cada confinado o menor transgresor sea adiestrado para lograr su rehabilitación y facilitar su ingreso a la libre comunidad. La Ley Núm. 47 de agosto de 1991 , según enmendada, creó la Corporación de Empresas de Adiestramiento y Trabajo (C.E.A.T.). El Plan de Reorganización Núm. 3 del 9 de diciembre de 1993, creó el Departamento de Corrección y Rehabilitación y adscribe la Corporación como un componente operacional. Ampliar las oportunidades de empleo y reeducación de la clientela correccional y de justicia juvenil, para que cada confinado o menor transgresor sea adiestrado para lograr su rehabilitación y facilitar su ingreso a la libre comunidad.",787-273-6464,787-759-9602,,Urb. Tres Monjitas Ave. Tnte. Cesar González Esq. Calaf Piso PH (Antiguo Edificio de Educación),"San Juan, PR",,919,"",1,2014-09-10 12:58:25.411-07,2014-09-10 12:58:25.411-07
23,Administración para el Adiestramiento de Futuros Empresarios y Trabajadores (Dpto. Trabajo),"La Ley Núm.1 de 23 de junio de 1985, según enmendada el 13 de agosto de 1990, crea el Cuerpo de Voluntarios al Servicio de Puerto Rico. El Plan de Reorganización 2 de 4 de mayo de 1994 reorganiza el Departamento del Trabajo y Recursos Humanos y adscribe esta agencia al Departamento como un componente operacional. La Ley Núm. 224 de 6 de agosto de 1999, cambia el nombre de la agencia a la Administración para el Adiestramiento de Futuros Empresarios y Trabajadores y dispone para nuevas funciones y otros fines públicos. Combatir el desempleo de jóvenes entre las edades de 14 a 29 años a través del desarrollo de programas innovadores donde interactúen el adiestramiento técnico-vocacional, la educación y la formación para capacitarlos en la obtención de un empleo e integrarlos productivamente en la comunidad. Además, proveer servicios de readiestramiento y empleo a trabajadores desplazados mediante un enfoque para el desarrollo de destrezas de vida y desarrollo humano, competencias de empleo, educación remedial y adiestramiento ocupacional para reintegrarlos al mundo del trabajo.","729-3552,729-3553",(787) 725-8471,,#520 Avenida de la Constitución,Puerta de Tierra,,0,http://www.aafet.gobierno.pr/,1,2014-09-10 12:58:25.405-07,2014-09-10 12:58:25.405-07
26,Administración de la Industria y el Deporte Hípico (Dpto. Desarrollo Económico),"Ley Núm. 83 de 2 de julio de 1987, según enmendada, crea la Ley Núm. 129 del 23 de julio de 1974, según enmendada crea la Escuela Vocacional Hípica. El Plan de Reorganización Núm. 4 de 22 de junio de 1994, crea el Departamento de Desarrollo Económico y Comercio y adscribe a dicho Departamento la Administración como un componente operacional. Supervisar, fiscalizar y fortalecer toda la actividad hípica en Puerto Rico para proteger la inversión del público y entidades que participan de dicho deporte.",(787) 768-2005,(787) 762-1105,,"Avenida 65 Infantería, Esq. Calle Rafael Arcelay,",Río Piedras,,929,http://www.adh.pr.gov,1,2014-09-10 12:58:25.403-07,2014-09-10 12:58:25.403-07
28,Autoridad de Carreteras y Transportación (Dpto. DTOP),"Ley Núm. 74 de 23 de junio de 1965, según enmendada, crea la Autoridad de Carreteras. La Ley Núm. 4 del 24 de agosto de 1990 la autoriza a efectuar contratos con entidades privadas para construcción, operación y mantenimiento de carreteras, puentes, avenidas, autopistas y otras facilidades de tránsito. La Ley Núm. 1 de 6 de marzo de 1991 la redenomina como la Autoridad de Carreteras y Transportación de Puerto Rico. Proveer al pueblo puertorriqueño un sistema de transportación integrado, eficiente, confiable y seguro que contribuya al desarrollo de la economía de Puerto Rico y mejore la calidad de vida. Desarrollar una gestión gubernamental de excelencia que fomente la confianza del pueblo.",(787) 721-8787,(787) 725-1620,,"Centro Gubernamental Minillas Edif. Sur, Piso 17",Santurce,,940,http://www.dtop.gov.pr/carretera/index.asp,1,2014-09-10 12:58:25.406-07,2014-09-10 12:58:25.406-07
31,Autoridad de Energía Eléctrica (AEE),"Ley Núm. 83 de 2 de mayo de 1941, según enmendada, creó un cuerpo corporativo que constituyó una corporación pública, con el nombre de Autoridad de las Fuentes Fluviales de Puerto Rico. Posteriormente, en virtud de la Ley 57 del 30 de mayo de 1979, se designó con el nombre de Autoridad de Energía Eléctrica de Puerto Rico. Proveer los servicios de energía eléctrica a los clientes en la forma más eficiente, económica y confiable posible sin menoscabo del ambiente.",787-521-3434,(787) 521-4120,,"1110 Ave. Ponce de León, Edificio Neos, piso 8 ofic. 801",Santurce,,0,http://www.aeepr.com,1,2014-09-10 12:58:25.406-07,2014-09-10 12:58:25.406-07
33,Autoridad de Tierras de Puerto Rico (Dpto. Agricultura),"Ley Núm. 26 de 12 de abril de 1941 según enmendada, conocida como Ley de Tierras de Puerto Rico, crea la Autoridad de Tierras de Puerto Rico. Por disposición del Plan de Reorganización Número 1 de 4 de mayo de 1994, la Autoridad de Tierras pasa a ser un componente programático y operacional del Departamento de Agricultura. Adquirir, conservar y preservar terrenos de alto valor agrícola para hacerlos disponibles y accesibles a los empresarios agrícolas del Estado Libre Asociado de Puerto Rico.",722-3934,(787) 723-9299,,Ave. Fernández Juncos #1311,Santurce,,907,http://www.agricultura.pr.gov,1,2014-09-10 12:58:25.406-07,2014-09-10 12:58:25.406-07
37,Autoridad Metropolitana de Autobuses (Dpto.DTOP),"Ley Núm. 5 de 11 de mayo de 1959, según enmendada, crea la Autoridad Metropolitana de Autobuses. El Plan de Reorganización Núm. 6 de 1971, transfiere al Secretario del Departamento de Transportación y Obras Públicas los poderes y facultades de la Junta de Directores de la AMA y se suprime la misma. Administrar y mantener en desarrollo continuo un sistema de transportación colectiva para facilitar la movilidad de la población del área metropolitana de San Juan. Esta acción se realiza en coordinación con el Departamento de Transportación y Obras Públicas e interactuando con la Autoridad de Carreteras y Transportación, para mejorar la calidad de vida de los ciudadanos.",(787) 767-0115,(787) 751-0527,,37 Ave. de Diego Urb. San Francisco,Río Piedras,,926,http://www.dtop.gov.pr/transporte_urbano/index.asp,1,2014-09-10 12:58:25.407-07,2014-09-10 12:58:25.407-07
38,"Autoridad para el Financiamiento de Facilidades Industriales, Turísticas, Educativas, Médicas y de Control Ambiental (Banco Gubernamental)","Propiciar métodos alternos de financiamiento al sector público y privado que promuevan Las inversiones de capital y el mejoramiento de la infraestructura en Puerto Rico y permita que las industrias, comercios e instituciones médicas, turísticas, educativas, privadas y de control ambiental expandan y desarrollen sus operaciones.","",(787) 728-0975,,"Ave. José De Diego, Centro Gubernamental Minillas, Edif. Banco Formento",Santurce,,940,"",1,2014-09-10 12:58:25.407-07,2014-09-10 12:58:25.407-07
43,Censo de Puerto Rico,"",787-728-4430,787-268-0506,,"Centro Gubernamental Roberto Sánchez Vilella, Ave. De Diego, Pda.22, Santurce Edificio Norte, Piso 15, Oficina 1501",Santurce,,940,Http://www.censo.gobierno.pr,1,2014-09-10 12:58:25.408-07,2014-09-10 12:58:25.408-07
44,Centro de Diabetes para Puerto Rico (CDPR),"",(787)773-8283,(787)773-8302,,"Edificio Decanato de Estudiantes (Recinto de Ciencias Medicas), 1er Piso, Centro Médico de Puerto Rico",San Juan PR,,0,http://www.diabetes.pr.gov,1,2014-09-10 12:58:25.408-07,2014-09-10 12:58:25.408-07
48,Comisión de Derechos Civiles (CDC),"La Comisión de Derechos Civiles se creó por la Ley Núm. 102 de 28 de junio de 1965, según enmendada. Posteriormente, esta Ley Orgánica es enmendada por la Ley Núm. 186 de 3 de septiembre de 1996; que adscribe la Comisión a la Asamblea Legislativa. Proteger y enaltecer los derechos civiles en Puerto Rico mediante la educación del pueblo y a los funcionarios de gobierno, la investigación y la orientación sobre tales derechos fundamentales.","TTY-TDD (787) 765-9360, Isla 1-800-981-9366",(787) 250-1756,,"Edificio Unión Plaza 416, Ave. Ponce De León, Piso 9, Ofic. 901",Hato Rey,,0,http://www.cdc.pr.gov,1,2014-09-10 12:58:25.409-07,2014-09-10 12:58:25.409-07
118,Oficina del Contralor de Puerto Rico (OCPR),"Artículo III, Sección 22, de la Constitución del Estado Libre Asociado de Puerto Rico que crea el cargo del Contralor y la Ley Núm. 9 de 24 de julio de 1952 según enmendada, que crea la Oficina del Contralor. Fiscalizar las transacciones de la propiedad y los fondos públicos. Con independencia y objetividad, para determinar si se han realizado de acuerdo con la ley. Promover el uso efectivo y eficiente de los recursos del gobierno en beneficio de nuestro pueblo.",250-3300,(787) 751-6768,,"Avenida Ponce de León 105, Pda 27, Esquina Calle Pepe Díaz",Hato Rey,,0,http://www.ocpr.gov.pr,1,2014-09-10 12:58:25.419-07,2014-09-10 12:58:25.419-07
49,Comisión de Desarrollo Cooperativo de Puerto Rico (CDCOOP),"La Ley Núm. 247, Ley Orgánica de la Comisión de Desarrollo Cooperativo de Puerto Rico, crea la nueva estructura gubernamental denominada Comisión de Desarrollo Cooperativo de Puerto Rico (CDCOOP). Entidad jurídica de la Rama Ejecutiva independiente, separada de cualquier otra agencia o entidad publica y no sujeta a otro Departamento, Agencia o Dependencia o Instrumentalidad del Gobierno y agrupa bajo sí a COSSEC y FIDECOOP. La Comisión es el eje principal para la definición e implantación de las estrategias gubernamentales para el fomento y desarrollo del Cooperativismo. Además establecerá una coordinación ágil y efectiva entre sus componentes y proveerá el espacio para la colaboración estrecha entre Gobierno, la academia y el propio Movimiento Cooperativo. La Comisión es el mecanismo para fomentar e implantar la política pública del estado para apoyar el fortalecimiento y crecimiento del Cooperativismo.",(787) 763-2097,(787) 754-3262,,"Ave. Américo Miranda Núm. 400, Edificio Original COSVI, Urb. Villa Nevárez",San Juan PR,,926,http://www.cdcoop.pr.gov,1,2014-09-10 12:58:25.409-07,2014-09-10 12:58:25.409-07
53,Comisión Industrial de Puerto Rico (CIPR),"La Comisión Industrial es un organismo con funciones cuasi-judiciales creado por la Ley Núm. 45 del 18 de abril de 1935, según enmendada y conocida como Ley del Sistema de Compensaciones por Accidentes del Trabajo. Garantizar que el lesionado reciba el tratamiento médico adecuado y la compensación justa y razonable de parte de la Corporación del Fondo del Seguro del Estado, de acuerdo con la Ley de Compensación por Accidentes del Trabajo y por la jurisprudencia normativa emitida por el Tribunal Supremo de Puerto Rico. Además, revisar que se cumpla con todos los aspectos de la Ley Núm. 45 del 18 de abril de 1935.",(787) 781-0615 / 783-3808 / 783-5610,(787) 782-5208,,"Urb. La Riviera Calle 3 SE, 311 Bo.Monacillos Río Piedras, PR 00936-4466","",,0,http://www.cipr.pr.gov,1,2014-09-10 12:58:25.41-07,2014-09-10 12:58:25.41-07
58,Compañía de Parques Nacionales de Puerto Rico (CPNPR),"La Ley Núm. 10 de 8 de abril de 2001, enmendó la Ley Núm. 114 de 23 de junio de 1961, según enmendada. Dicha Ley integró el Fideicomiso para el Desarrollo, Operación y Conservación de los Parques Nacionales de Puerto Rico y la Compañía de Fomento de Recreativo y se creó la Compañía de Parques Nacionales de Puerto Rico. La Ley Núm. 9 de 8 de abril de 2001, establece la ""Ley del Sistema de Parques Nacionales de Puerto Rico"", la cual es operada por la Compañía. Desarrollar, operar y preservar un sistema de Parques Nacionales y otras áreas de valor ecológico, recreativo e histórico para el disfrute y una mejor calidad de vida para las presentes y futuras generaciones. A su vez, planificar, diseñar y construir instalaciones recreativas y deportivas para la comunidad puertorriqueña.","622-5225, 26, 27",(787) 982-2173,,Ave. Fernández Juncos Esquina Calle Bolívar Num. 1611 Antiguo Edificio del Fondo del Seguro de Estado,San Juan,,909,http://www.parquesnacionalespr.com/,1,2014-09-10 12:58:25.411-07,2014-09-10 12:58:25.411-07
63,"Corporación de Industrias de Ciegos, Personas Mentalmente Retardadas y Otras Personas Incapacitadas (Dpto. Familia)","Ley Núm. 207 del 14 de mayo de 1948, según enmendada, crea la Corporación de Industrias de Ciegos de Puerto Rico, enmendada por la Ley Núm. 127 de 24 de junio de 1968, para cambiar su nombre a Corporación Industrias de Ciegos, Personas Mentalmente Retardadas y otras Personas Incapacitadas de Puerto Rico. El Plan de Reorganización Número 1, aprobado el 28 de julio de 1995, por la Asamblea Legislativa, adscribe la Corporación al Departamento de la Familia e instruye a efectuar un análisis de la corporación pública y a determinar su status dentro de la nueva estructura organizacional del Departamento. Proveer medios para la rehabilitación social y económica de personas ciegas, personas mentalmente retardadas y otras personas con impedimentos en Puerto Rico, mediante oportunidades de trabajo remunerado en talleres sin fines de lucro destinados a la producción de artículos para la venta al público.",721-3266,(787) 724-4733,,"Calle San Rafael Final, Parada 20",San Juan,,0,http://www.cirio.gobierno.pr,1,2014-09-10 12:58:25.411-07,2014-09-10 12:58:25.411-07
66,Corporación de Seguros Agrícolas (Dpto. Agricultura),"Ley Núm. 166 de 11 de agosto de 1988 , crea la Corporación de Seguros Agrícolas. Ley Núm. 99 de 2 de julio de 2002 , establece el seguro obligatorio para agricultores que reciben subsidios estatales. Proveer seguros agrícolas para proteger la inversión de los agricultores, las instituciones crediticias que financieras las distintas empresas agrícolas y las cuantiosas inversiones que hace el Gobierno a través de los programas de incentivos.","",(787) 725-4710,,"Edif. Plaza 20, Ave Hipódromo 603",Santurce,,0,http://www.csa.gobierno.pr,1,2014-09-10 12:58:25.412-07,2014-09-10 12:58:25.412-07
70,Corporación del Proyecto ENLACE del Caño Martín Peña,"",(787) 729-1594,"",,"Centro Gubernamental Minillas, Torre Sur,Piso P",Santurce,,0,http://martinpena.org/,1,2014-09-10 12:58:25.412-07,2014-09-10 12:58:25.412-07
74,Cuerpo de Emergencias Médicas (CEM),"Establecer medidas de coordinación a los fines de que la prestación de servicios del Cuerpo de Emergencias Médicas se beneficie de la estructura operacional de la Policía. Ofrecer cuidado médico pre-hospitalario y transporte de emergencia a una facilidad médica adecuada, de forma eficaz, rápida y segura a todo el que lo requiera, para preservar la salud.",(787) 754-2550/ (787) 775-0345,(787) 775-1202,,"Calle San Martín #90, Edificio Rodval, Sector Pueblo Viejo, Marginal Buchanan",San Juan,,0,http://www.cempr.pr.gov,1,2014-09-10 12:58:25.413-07,2014-09-10 12:58:25.413-07
79,Departamento de Desarrollo Económico y Comercio (DDEC),"Plan de Reorganización Núm. 4 de 1994, enmendado por la Ley Número 51 de 4 de agosto de 1994 crea el Departamento de Desarrollo Económico y Comercio. Implantar y supervisar la política pública sobre el desarrollo económico de Puerto Rico en los diversos sectores empresariales de la industria, el comercio, el turismo, los servicios, el cooperativismo y otros, para propiciar el desarrollo de una economía privada estable y autosostenida con una visión hacia el futuro, tomando en consideración la globalización de la economía y la constitución de bloques económicos regionales.",(787) 765-2900,(787) 753-4094,,Edif. Fomento Ave. F.D. Roosevelt Piso 4 Hato Rey,Hato Rey,,0,http://www.ddec.pr.gov,1,2014-09-10 12:58:25.414-07,2014-09-10 12:58:25.414-07
84,Departamento de Justicia (DJ),"El Artículo IV, Sección 6 de la Constitución del Estado Libre Asociado de Puerto Rico, del 25 de julio de 1952, creó el Departamento de Justicia. Otras leyes específicas le asignan funciones o crean oficinas en el mismo, con propósitos particulares. Proteger la integridad de las instituciones del Estado Libre Asociado y sus funcionarios por medio de asesoramiento y representación legal adecuada y efectiva; representar al pueblo de Puerto Rico en casos criminales y dar certeza al tráfico jurídico de propiedades inmuebles. El Departamento debe velar por el fiel cumplimiento de las leyes y la Constitución y defender los más altos principios de igualdad y dignidad.",(787) 721-7700,(787) 724-4770,,"Calle Olimpo Esq. Lindbergh, Pda. 11",Miramar,,0,http://www.justicia.gobierno.pr,1,2014-09-10 12:58:25.414-07,2014-09-10 12:58:25.414-07
54,Comisión para la Seguridad en el Tránsito (CST),"Ley Núm. 33 de 25 de mayo de 1972, según enmendada, crea la Comisión para la Seguridad en el Tránsito. La Ley Núm. 44 del 25 de agosto de 1990 establece que la Administración de Compensaciones por Accidentes de Automóviles (ACAA) asignará los recursos estatales para el funcionamiento del programa. Prevenir y reducir muertes, heridos y daños a la propiedad, causados por choques de tránsito, estableciendo campañas y programas educativos efectivos que orienten sobre la importancia de cumplir con las leyes y reglamentos de seguridad en el tránsito para beneficio de la ciudadanía puertorriqueña.",(787) 722-2929,(787) 727-0486,,"Centro Gubernamental Minillas, Edif. Sur, Piso 5","San Juan, Puerto Rico",,924,http://www.comisionparalaseguridadeneltransito.com/,1,2014-09-10 12:58:25.41-07,2014-09-10 12:58:25.41-07
64,Corporación de la Orquesta Sinfónica de PR (COSPR),"Puerto Rico cuenta con la orquesta sinfónica más importante y de mayor trascendencia de todo el Caribe. La historia de nuestra orquesta se remonta al año 1956, cuando el Maestro Pablo Casals vino por primera vez a Puerto Rico, lugar donde nació su madre, doña Pilar Defilló. El Maestro rápidamente se enamoró de nuestro terruño y albergó el sueño de crear una orquesta sinfónica.",727-8060,(787) 726-4009,,"Ave. José De Diego, Pda 22,Centro Gubernamental Minillas, Torre Norte, Piso 11",Santurce,,0,http://www.sinfonicapr.gobierno.pr,1,2014-09-10 12:58:25.411-07,2014-09-10 12:58:25.411-07
72,Corporación para las Artes Musicales (CAM),"Ley Núm. 4 de 31 de julio de 1985 , según enmendada, crea la Corporación de las Artes Musicales. Ley Núm. 44 de 12 de mayo de 1980 , según enmendada, crea la Corporación de la Orquesta Sinfónica de Puerto Rico. Ley Núm. 42 de 12 de mayo de 1980 según enmendada, crea la Corporación de las Artes Escénico Musicales de Puerto Rico. Promover el máximo desarrollo y enriquecimiento de la expresión musical y las artes escénico musicales en y fuera de Puerto Rico, para crear mayor interés por nuestros valores culturales entre los ciudadanos, en especial la juventud puertorriqueña.",728-1165,(787) 723-7442,,"Ave. José De Diego Pda.22, Centro Gubernamental Minillas, Torre Norte, Piso 11",Santurce,,0,http://www.cam.pr.gov,1,2014-09-10 12:58:25.413-07,2014-09-10 12:58:25.413-07
76,Departamento de Corrección y Rehabilitación (DCR),"Plan de Reorganización Número 3 de 9 de diciembre de 1993 , creó el Departamento de Corrección y Rehabilitación, a éste se le adscriben las siguientes agencias: Administración de Corrección, Administración de Instituciones Juveniles, Junta de Libertad Bajo Palabra, Oficina de Servicios con Antelación al Juicio y la Corporación de Empresas de Adiestramiento y Trabajo. Estructurar, desarrollar y coordinar la política pública del Estado Libre Asociado de Puerto Rico sobre el sistema correccional y la rehabilitación de la población correccional adulta y juvenil.",(787) 273-6343/ 273-6464,(787) 792-7677,,"Edificio Metropolitan, Park Carr. 21, Km. 4.2 Bo. Monacillos",Río Piedras,,0,http://www.ac.gobierno.pr,1,2014-09-10 12:58:25.413-07,2014-09-10 12:58:25.413-07
81,Departamento de Estado,"El Artículo IV, Sección 6 de la Constitución del Estado Libre Asociado de Puerto Rico de 25 de julio de 1952, crea el Departamento de Estado. Posteriormente, otras órdenes ejecutivas y leyes le asignan deberes y responsabilidades específicas. Fomentar relaciones efectivas entre el Gobierno de Puerto Rico y el Gobierno de los Estados Unidos, los países extranjeros y los organismos internacionales para mantener una buena imagen de nuestra Isla y sus instituciones públicas; garantizar la autenticidad de las leyes aprobadas; las firmas de notarios y funcionarios públicos; el registro de marcas de fábricas; corporaciones y de la propiedad intelectual; facilitar el movimiento de los ciudadanos de los Estados Unidos y extranjeros que viajan a otros países y contribuir a lograr la excelencia de los servicios que se prestan al público a través de las Juntas Examinadoras de Profesionales y Oficios.",723-4344 / 723-4334,(787) 725-7303,,Calle San José Esq. San Francisco,Viejo San Juan,,0,http://www.estado.pr.gov,1,2014-09-10 12:58:25.414-07,2014-09-10 12:58:25.414-07
86,Departamento de la Vivienda (DV),"Ley Núm. 97 de 10 de junio de 1972, según enmendada. Propiciar el desarrollo de una vivienda adecuada dentro de un ambiente seguro, articulado dentro de un contexto ambiental, social y económico que permita atender el déficit de vivienda que existe en los sectores más necesitados de nuestra población y maximizar la utilización de terrenos en un ambiente ordenado.",(787) 274-2005 / 274-2006,(787) 758-9263,,"606 Ave. Barbosa, Piso 10, Edif. Juan C. Cordero",Rio Piedras,,0,http://www.vivienda.pr.gov,1,2014-09-10 12:58:25.415-07,2014-09-10 12:58:25.415-07
91,Departamento del Trabajo y Recursos Humanos (DTRH),"<div>Ley Núm. 15 del 14 de abril de 1931, Ley Orgánica del Departamento del Trabajo de Puerto Rico. Esta fue ratificada por la Constitución del Estado Libre Asociado de Puerto Rico en el 1952. La Ley Núm. 100 del 23 de junio de 1977, lo redenomina como Departamento del Trabajo y Recursos Humanos. El Plan de Reorganización 2 de mayo de 1994, crea la estructura organizativa. LaLey Núm. 180 del 27 de julio de 1998, deroga la Junta de Salario Mínimo y se transfiere al Departamento sus facultades. La Orden Administrativa 99-05 de 16 de junio de 1999,del Secretario del Trabajo transfiere el Negociado de Seguridad de Empleo a la Administración de Derecho al Trabajo.</div>",(787) 754-5353/ (787) 754-2120,(787) 753-9550,,"Edificio Prudencio Rivera Martínez, Ave. Muñoz Rivera #505","San Juan, PR",,918,http://www.trabajo.pr.gov,1,2014-09-10 12:58:25.415-07,2014-09-10 12:58:25.415-07
96,Instituto de Estadísticas de Puerto Rico (IEPR),"",(787) 993-3336,(787) 993-3346,,"Calle Quisqueya #57, 2do piso",San Juan,,0,http://www.estadisticas.gobierno.pr,1,2014-09-10 12:58:25.416-07,2014-09-10 12:58:25.416-07
101,Junta Reglamentadora de Telecomunicaciones (JRTPR),"Ley Núm. 213 del 12 de septiembre de 1996, según enmendada, conocida como Ley de Telecomunicaciones de Puerto Rico, crea la Junta Reglamentadora de Telecomunicaciones de Puerto Rico como la agencia encargada de reglamentar los servicios de telecomunicaciones en Puerto Rico. Asegurar la disponibilidad de un servicio de telecomunicaciones a un costo razonable para todos los ciudadanos de Puerto Rico. Vigilar la eficiencia de los servicios de telefonía y televisión por cable así cmo de otros servicios de telecomunicación y para otros propósitos relacionados.<br />",(787) 281-9393,(787) 756-0814,,"500 Ave. Roberto H. Todd, Pda. 18",Santurce,,0,http://www.jrtpr.gobierno.pr,1,2014-09-10 12:58:25.417-07,2014-09-10 12:58:25.417-07
108,Oficina de Ética Gubernamental (OEGPR),"Ley Núm 1-2012, conocida como Ley de Ética Gubernamental de Puerto Rico de 2011. Velar porque los funcionarios y empleados públicos mantengan una conducta honesta y justa en el descargo de sus funciones para fortalecer los principios éticos en el servicio público.",(787) 999-0246,(787) 754-0977,,"Urb. El Paraíso, 108 Calle Ganges",Rio Piedras,,0,http://eticapr.com/,1,2014-09-10 12:58:25.418-07,2014-09-10 12:58:25.418-07
68,Corporación del Centro Cardiovascular de Puerto Rico y el Caribe (CCCPRC),"La Ley Núm. 51 del 30 de junio de 1986 según enmendada por la Ley Núm. 2 del 21 de agosto de 1990, crea la Corporación del Centro Cardiovascular de Puerto Rico y del Caribe como una corporación que funcionará como una entidad independiente y separada de cualquier otra instrumentalidad gubernamental. Proveer servicios de la más alta calidad para el cuidado de la salud mediante la prevención, diagnóstico, tratamiento y rehabilitación de condiciones cardiovasculares en la forma más costo efectiva y segura, generando beneficios medibles para nuestra comunidad. Propiciar el ambiente para la educación y adiestramiento de los profesionales de la salud y fomentar la investigación y el desarrollo de una manera consistente al mejoramiento continuo de la calidad.",(787) 274-0470,(787) 999-0860,,"Ave. Américo Miranda, Esq. Centro Médico",Río Piedras,,0,http://www.cardiovascular.gobierno.pr/,1,2014-09-10 12:58:25.412-07,2014-09-10 12:58:25.412-07
73,Corporación Pública para la Supervisión y Seguros de Cooperativas de PR (COSSEC),"Ley Núm. 114 de 17 de agosto de 2001, según enmendada, conocida como ""Ley de la Corporación de Seguro de Acciones y Depósitos (COSSEC)"". Esta Ley deroga la Ley Núm. 5 de 15 enero de 1990, según enmendada, conocida como ""Ley de la Corporación de Seguro de Acciones y Depósitos"". Garantizar la solvencia, solidez y competitividad de las Cooperativas de Ahorro y Crédito y asegurar los depósitos y las acciones de los socios y depositantes, protegiendo el interés público.",787-622-0957,(787) 622-0979,,"Ave. Americo Miranda 400, Antiguo Edificio COSVI, Villa Nevarez, PR 00927",Hato Rey,,0,http://www.cossec.com,1,2014-09-10 12:58:25.413-07,2014-09-10 12:58:25.413-07
78,Departamento de Asuntos del Consumidor (DACO),"El Departamento de Asuntos del Consumidor se creó mediante la Ley Núm. 5 de 23 de abril de 1973, según enmendada. Otras leyes relacionadas a la Agencia son la Ley Núm. 228 de 13 de mayo de 1942 y la Ley Núm. 120 de 17 de junio de 1993, según enmendadas. Proteger y defender a los consumidores y mantener un balance en el precio de los artículos y servicios de uso y consumo, conforme a la oferta y la demanda, las tendencias inflacionarias y mediante el establecimiento y fiscalización de un control de precios.",777-1500 ext. 1447,(787) 726-0077,,"Ave. José De Diego, Pda. 22 Centro Gubernamental Minillas, Torre Norte, Piso 4",Santurce,,0,http://www.daco.gobierno.pr,1,2014-09-10 12:58:25.413-07,2014-09-10 12:58:25.413-07
83,Departamento de Justicia - Oficina del Procurador General,"La Oficina del Procurador General, según se conoce actualmente, se creó mediante la aprobación de la Ley Núm. 7 de 15 de mayo de 1959. Las funciones del Procurador General permanecieron esencialmente inalteradas con la aprobación de la Ley Núm. 205 de 9 de agosto de 2004, conocida como “Ley Orgánica del Departamento de Justicia.” (“Ley Núm. 205”).&nbsp; Conforme la citada Ley Núm. 205, el Procurador General es el funcionario que representa al Estado ante los tribunales de más alta jerarquía, quien tambien&nbsp;ostenta la función de uniformar las posturas del Estado ante los altos foros.&nbsp; Específicamente, el Artículo 60 de la citada Ley Núm. 205 establece, entre otras cosas, lo siguiente: El Procurador General representará al Gobierno de Puerto Rico en todos los asuntos civiles y criminales en que éste sea parte o esté interesado y que se tramiten en grado de apelación o en cualquier otra forma ante los tribunales apelativos de Puerto Rico, de los Estados Unidos, o de cualquier otro estado federado, territorio o posesión de los Estados Unidos de América, excepto en los casos en los cuales el Secretario determine otra cosa.",(787) 721-2900/ (787) 721-7700,(787) 722-4440,,"Calle Olimpo, Esq. Axtmayer Piso 11, Edif. 601",Miramar,,0,http://www.justicia.pr.gov/,1,2014-09-10 12:58:25.414-07,2014-09-10 12:58:25.414-07
87,Departamento de Recreación y Deportes (DRD),"Ley Núm. 126 de 13 junio de 1980, según enmendada, conocida como la Ley Orgánica del Departamento, Ley Núm. 120 de 17 de agosto de 2001, conocida como Ley de Municipalización de Instalaciones Recreativas y Deportivas Comunitarias y la Ley Núm. 119 de 17 de agosto de 2001, conocida como Ley del Fondo y la Junta para el Desarrollo de Atleta Puertorriqueño de Alto Rendimiento a Tiempo Completo. Promover estrategias innovadoras para el desarrollo de la recreación y el deporte como alternativas para el buen uso del tiempo libre y el mejoramiento de la calidad de vida de los ciudadanos de Puerto Rico.","728-2464 /2449,",(787) 268-1845,,"Parque de Santurce, Calle Los Ángeles",Santurce,,0,http://www.drd.pr.gov,1,2014-09-10 12:58:25.415-07,2014-09-10 12:58:25.415-07
92,Escuela de Artes Plásticas (EAP),"Se creó mediante la Ley Núm. 54 del 22 de agosto de 1990, como organismo autónomo, adscrito al Instituto de Cultura Puertorriqueña. Lograr la formación plena de artistas profesionales y maestros de arte, mediante el desarrollo de la creatividad y la enseñanza de técnicas artísticas. Ofrece estudios conducentes al grado de Bachillerato en Artes Plásticas con especialidad en pintura, escultura, artes gráficas, educación del arte e imagen y diseño, al igual que un programa de estudios libres.",(787) 725-8120,(787) 725-8111,,"Calle Norzagaray, Campos del Morro",Viejo San Juan,,0,http://www.eap.edu,1,2014-09-10 12:58:25.415-07,2014-09-10 12:58:25.415-07
97,Junta de Calidad Ambiental (JCA),"Ley Núm. 416 de 22 de septiembre de 2004, según enmendada, conocida como ""Ley sobre Política Pública Ambiental"", crea la Junta de Calidad Ambiental y define su autoridad, poderes y deberes. Proteger el medio ambiente, mediante el control de la contaminación del aire, agua, terrenos y la eliminación de ruidos nocivos a la salud y promover una mejor calidad de vida.",(787) 767-8056,(787) 767-4861,,Edificio de Agencias Ambientales,Rio Piedras,,0,http://www.jca.gobierno.pr,1,2014-09-10 12:58:25.416-07,2014-09-10 12:58:25.416-07
104,Oficina de Administración de las Procuradurías (OAP),"<div>Desarrollar la integración administrativa de las Procuradorías en una sola estructura organizacional, incluyendo los componentes de: Salud, Veteranos, Impedidos, Pensionados y Personas de la Tercera Edad. Propiciando un servicio eficaz y de excelencia a los ciudadanos, utilizando los recursos humanos y fiscales de forma eficiente e integrada. </div> <div>&nbsp;</div>",787-721-6121,787-919-0637,,"Ave. Ponce de León, PDA. 16, Edificio 1064, Piso 3, Santurce","San Juan, PR",,0,"",1,2014-09-10 12:58:25.417-07,2014-09-10 12:58:25.417-07
107,Oficina de Exención Contributiva Industrial (OECI),"",(787) 765-1171,(787) 766-4360,,"355 Avenida F.D. Roosevelt, Edificio PRIDCO, Oficina 105",Hato Rey,,0,http://www.oeci.gobierno.pr,1,2014-09-10 12:58:25.418-07,2014-09-10 12:58:25.418-07
112,Oficina de la Procuradora de las Mujeres (OPM),"La Oficina de la Procuradora de las Mujeres fue creada por la Ley Núm. 20 del 11 de abril de 2001, Ley de la Oficina de la Procuradora de las Mujeres, entidad jurídica independiente y separada de cualquier otra agencia o entidad pública. Fortalecer y hacer cumplir las políticas públicas que garanticen los derechos humanos de las mujeres, que promuevan la equidad y que eliminen todas las manifestaciones de discrimen y violencia hacia las mujeres.",(787) 721-7676,787-721-7711,,Ave. Ponce de Leon #161,Hato Rey,,917,http://www.mujer.gobierno.pr,1,2014-09-10 12:58:25.419-07,2014-09-10 12:58:25.419-07
69,Corporación del Fondo del Seguro del Estado (CFSE),"El Fondo del Seguro del Estado se crea mediante la Ley Núm. 45 de 18 de abril de 1935, según enmendada, conocida como Ley del Sistema de Compensaciones por Accidentes del Trabajo. El 29 de octubre de 1992, mediante la Ley Núm. 83, se creó la Corporación del Fondo del Seguro del Estado, la Oficina del Administrador, una Junta de Directores y un Consejo Médico Industrial. La Ley de Compensaciones por Accidentes del Trabajo es de naturaleza compulsoria y exclusiva, aplicable a todo patrono que emplee uno o más trabajadores en cualquier actividad económica, con la excepción del trabajo a domicilio y la labor casual no comprendida dentro del negocio, industria, ocupación o profesión del patrono. La ley coloca el seguro de compensación por accidentes del trabajo exclusivamente en manos del Estado. Promover el bienestar de la clase trabajadora de Puerto Rico a través de la justa prestación de servicios a los obreros afectados por accidentes o enfermedades ocupacionales y garantizar una compensación por muerte, accidente o enfermedad que cause incapacidad, derivadas de la ocupación a través del pago de primas a los trabajadores o sus beneficiarios. Además, proveer los métodos para hacer más efectivo este deber mediante la reglamentación y administración del seguro obrero patronal.",793-7284,(787) 793-7735,,"Esq. Ave. De Diego, Bo. Monacillos, Urb. La Riviera Carr. 21",Río Piedras,,0,http://www.cfse.pr.gov/,1,2014-09-10 12:58:25.412-07,2014-09-10 12:58:25.412-07
75,Cuerpo de Bomberos de Puerto Rico,"Ley Núm. 43 de 21 de junio de 1988 , según enmendada, crea el Cuerpo de Bomberos de Puerto Rico. Prevenir, combatir y determinar las causas de incendios para proteger vida y propiedades.",787-726-2377,(787) 726-2614,,"Casa Lee, Calle Loíza 2432 Esq. Calle Doncella",Punta Las Marías,,0,http://www.bomberos.pr.gov,1,2014-09-10 12:58:25.413-07,2014-09-10 12:58:25.413-07
80,Departamento de Educación (DE),"El Artículo IV, Sección 6 de la Constitución del Estado Libre Asociado de Puerto Rico; la Ley Orgánica del Departamento de Educación Pública de Puerto Rico, Ley Núm. 149 del 15 de julio de 1999, que deroga las Leyes 68 de 28 de agosto de 1990, la Ley Núm. 18 de 16 de junio de 1993, y el Artículo 23 de la Ley Núm. 230 de 12 de mayo de 1942. La RC 3 de 28 de agosto de 1995, adscribe la Oficina para el Mejoramiento de las Escuelas Públicas al Departamento de Educación y la Ley Núm. 51 de 7 de junio de 1996, que crea la Secretaría Auxiliar de Servicios Educativos Integrales para Personas con Impedimentos. Garantizar una educación gratuita y no sectaria que desarrolle las capacidades y talentos de todos los estudiantes para que sean ciudadanos productivos, independientes, aprendices de por vida, respetuosos de la ley y del ambiente, y capaces de contribuir al bienestar común.","787-753-2062, 787-763-2171, 787-754-2899","(787) 282-6017, (787) 756-5148",,Calle Federico Costa #150 Hato Rey,Hato Rey,,918,http://www.de.gobierno.pr/,1,2014-09-10 12:58:25.414-07,2014-09-10 12:58:25.414-07
85,Departamento de la Familia (DF),"Bajo la Ley Núm. 5 de 6 de abril de 1993, conocida como Ley de Reorganización de la Rama Ejecutiva, se aprobó el 28 de julio de 1995 el Plan de Reorganización Número 1, para redenominar y reorganizar el Departamento de Servicios Sociales como Departamento de la Familia, Ley Núm. 171 de 30 de junio de 1968, según enmendada. <br />&lt;br&gt;Facilitar la autogestión y la autosuficiencia de las personas, familias y comunidades para promover su fortalecimiento con sensibilidad, respeto a sus necesidades, así como sus aspiraciones de desarrollo y paz. <br />&lt;br&gt;",(787) 294-0738; 294-0724),Fax: 294-0732,,Ave. Barbosa #306,Hato Rey,,0,http://www.familia.pr.gov,1,2014-09-10 12:58:25.414-07,2014-09-10 12:58:25.414-07
89,Departamento de Salud (DS),"Ley Orgánica Núm. 81 de 14 de marzo de 1912, según enmendada. Constitución del Estado Libre Asociado del 25 de julio de 1952, Artículo IV, Sección 6. Regular y fiscalizar la prestación de los servicios de salud en Puerto Rico y velar porque se cumplan las normas para garantizar el bienestar general del pueblo.",(787) 765-2929,(787) 274-3307,,"Antiguo Hospital de Psiquiatría, Edif.A, Centro Médico",Rio Piedras,,0,http://www.salud.gov.pr/,1,2014-09-10 12:58:25.415-07,2014-09-10 12:58:25.415-07
93,Guardia Nacional de Puerto Rico (GNPR),"Ley Núm. 62 de 23 de junio de 1969, según enmendada, conocida como Código Militar de Puerto Rico. Proteger las vidas y propiedades en forma eficaz y rápida, preservar la paz, el orden y la seguridad a la ciudadanía en general en situaciones de emergencias provocadas por desastres naturales y disturbios civiles, y para servir como cuerpo de seguridad nacional del Ejército de los Estados Unidos.",(787) 289-1631,(787) 723-6360,,Calle Raúl Estévez Esq. Ave. Constitución,Puerta de Tierra,,0,"",1,2014-09-10 12:58:25.416-07,2014-09-10 12:58:25.416-07
98,Junta de Gobierno del Servicio 9-1-1,"Reducir el tiempo que toma a los ciudadanos comunicarse con las agencias de seguridad pública (agencias de respuesta), mediante la prestación de un servicio rápido y eficiente de recepción de llamadas de emergencias a través del 9-1-1, y la inmediata activación de dichas agencias, utilizando la más moderna tecnología de las telecomunicaciones y recursos humanos debidamente adiestrados como herramientas principales, para salvaguardar vida y propiedades en inminente peligro. ","",(787) 792-0061,,"Calle Filipo de Plana, Carretera 20 km. 2.3 Barrio Monacillo Abajo",Río Piedras,,0,"",1,2014-09-10 12:58:25.416-07,2014-09-10 12:58:25.416-07
103,Lotería Tradicional de Puerto Rico,"",(787) 250-8150 ó (787) 771-3700,787-763-8463,,"",Hato Rey,,0,http://www.hacienda.gobierno.pr/loteria/index.asp,1,2014-09-10 12:58:25.417-07,2014-09-10 12:58:25.417-07
109,Oficina de Capacitación y Asesoramiento en Asuntos Laborales y de Administración de Recursos Humanos (OCALARH),"La Ley Núm. 184 de 3 de agosto de 2004, según enmendada, conocida como la Ley para la Administración de los Recursos Humanos en el Servicio Público del Estado Libre Asociado de Puerto Rico reforma el Sistema de Administración de los Recursos Humanos del Estado Libre Asociado de Puerto Rico, redefine las funciones y facultades de la Oficina Central de Asesoramiento Laboral y Administración de Recursos Humanos y la renombra como Oficina de Recursos Humanos del Estado Libre Asociado de Puerto Rico.&nbsp; Luego, mediante la aprobación de la Ley Núm. 133 de 12 de julio de 2011, redenomina la Oficina de Recursos Humanos del Estado Libre Asociado de Puerto Rico (ORHELA) como Oficina de Capacitación y Asesoramiento en Asuntos Laborales y de Administración de Recursos Humanos (OCALARH).",(787) 274-4300,(787) 250-1145; (787) 250-1109 (Adiestramiento),,"Edificio Zequeira, Ave. Ponce De León, Calle Vela #6",Hato Rey,,0,http://www.ocalarh.pr.gov,1,2014-09-10 12:58:25.418-07,2014-09-10 12:58:25.418-07
114,Oficina del Comisionado de Asuntos Municipales (OCAM),"La Ley Núm. 81 de 30 de agosto de 1991 , según enmendada, en su Capítulo XIX, crea la Oficina del Comisionado de Asuntos Municipales. Actuar como un ente asesor y regulador de los municipios en su proceso de desarrollo autonómico para que éstos logren el mayor grado de gobierno propio dentro de un marco de sana administración municipal.",(787) 754-1600,787) 753-8254,,"Ave. Ponce de León #255, Edif. MCS Plaza, Pisos 5 y 6, Suite 500",Hato Rey,,0,http://www.ocam.pr.gov,1,2014-09-10 12:58:25.419-07,2014-09-10 12:58:25.419-07
77,Departamento de Agricultura (DA),"El Artículo IV, Sección 6 de la Constitución del Estado Libre Asociado. El Plan de Reorganización Número 1 de 4 de mayo de 1994, reorganiza al Departamento de Agricultura como un Departamento Sombrilla. Facilitar y para promover el desarrollo de las empresas agropecuarias, la pesca comercial y la acuicultura, para aumentar su capacidad competitiva y su contribución a la economía; sustituir importaciones con productos de alta calidad y generar empleos.","","(787) 723-8512 Oficina del Secretario , (787)722-2283 Oficina del Secretario",,"1309 Ave. Fernández Juncos, Pda. 19 1/2, Piso 2",Santurce,,0,http://www.agricultura.pr.gov,1,2014-09-10 12:58:25.413-07,2014-09-10 12:58:25.413-07
82,Departamento de Hacienda (DH),"El Plan de Reorganización Núm. 3 de 22 de junio de 1994, que reorganiza el Departamento de Hacienda como el Departamento Sombrilla. Garantizar la justicia contributiva y estabilidad fiscal que contribuya plenamente al bienestar social y económico de nuestro país. Formular e implantar la política fiscal, contributiva y financiera del Estado Libre Asociado de Puerto Rico.",729-0916 / 0917,(787) 721-2111,,"Edificio Intendente Ramírez, Pda 1 Paseo Covandonga #10",Viejo San Juan,,906,http://www.hacienda.pr.gov,1,2014-09-10 12:58:25.414-07,2014-09-10 12:58:25.414-07
88,Departamento de Recursos Naturales y Ambientales (DRNA),"El Plan de Reorganización Núm. 4 de 9 de diciembre de 1993, redenomina el Departamento de Recursos Naturales como Departamento de Recursos Naturales y Ambientales creado por la Ley 23 de 20 de junio de 1972. Proteger, conservar y administrar los recursos naturales y ambientales del País de forma balanceada para garantizar a las próximas generaciones su disfrute y estimular una mejor calidad de vida.","",(787) 999-2303,,"Carr. 8838 Sector El Cinco, Piso 9 Edif. Dr. Cruz A. Matos",Río Piedras,,0,http://www.drna.gobierno.pr,1,2014-09-10 12:58:25.415-07,2014-09-10 12:58:25.415-07
94,Instituto de Ciencias Forenses (ICF),"Garantizar mediante la participación e investigación científica un rol importante en el sistema de justicia criminal para esclarecer más allá de toda duda razonable las causas, modos y circunstancias de muertes y otros delitos a través de las ciencias forenses. Garantizar mediante la participación e investigación científica un rol importante en el sistema de justicia criminal para esclarecer más allá de toda duda razonable las causas, modos y circunstancias de muertes y otros delitos a través de las ciencias forenses.",(787) 765-0615/ 0614,(787) 759-8908,,"Calle Maga Esq. Casia SE #9, Urb. Reparto Metropolitano",Río Piedras,,0,https://www.icf.pr.gov,1,2014-09-10 12:58:25.416-07,2014-09-10 12:58:25.416-07
100,Junta de Relaciones del Trabajo (JRT),"Ley Núm. 130 de 8 de mayo de 1945, según enmendada, conocida como Ley de Relaciones del Trabajo de Puerto Rico la Junta de Relaciones del Trabajo de Puerto Rico. Implantar en forma adecuada, eficaz e imparcial la política pública gubernamental respecto a las relaciones obrero-patronales. Promover los principios de la negociación colectiva al intervenir en disputas obrero-patronales en el ámbito sindical fomentando la paz industrial y la producción económica.",721-4095,787 620-9541,,"Edificio GA Plaza 1052, Pisos 7 y 8, Avenida Muñoz Rivera",Río Piedras,,0,http://www.jrt.pr.gov,1,2014-09-10 12:58:25.417-07,2014-09-10 12:58:25.417-07
102,Junta Revisora de Permisos y Uso de Terrenos (JR),"Ley Núm. 76 de 24 de junio de 1975 , según enmendada conocida como ""Ley Orgánica de la Administración de Reglamentos y Permisos"", crea la Junta de Apelaciones Sobre Construcciones y Lotificaciones. Ley Núm. 81 del 30 de agosto de 1991 , según enmendada, conocida como Ley de Municipios Autónomos"" Ley Núm. 170 del 23 de julio de 1974 , conocida como ""Ley de la Autoridad de Acueductos y Alcantarillados"". Actuar como un foro apelativo con carácter independiente, para atender de forma efectiva los reclamos de personas particulares, constructores y entidades corporativas, resolviendo sus planteamientos, luego de vistas y conforme a los autos, respecto a decisiones adversas de la Administración de Reglamentos y Permisos, los Municipios Autónomos y de ciertas decisiones de la Autoridad de Acueductos y Alcantarillados.",(787) 721-4835,(787) 721-5275,,"Centro Gubernamental Minillas, Ave. José de Diego, Torre Sur, Oficina 203",Santurce,,0,http://www.jr.pr.gov,1,2014-09-10 12:58:25.417-07,2014-09-10 12:58:25.417-07
106,Oficina de Asuntos de la Juventud (OAJ),"La Oficina de Asuntos de la Juventud, adscrita a la Oficina del Gobernador, se crea por la Ley Núm. 34 de 13 de julio de 1978, según enmendada, conocida como la Ley del Consejo Asesor sobre Asuntos de la Juventud. Implantar la política pública dirigida a la juventud, tomando en cuenta sus aspiraciones y metas, así como coordinar servicios eficientes con las agencias públicas, entidades privadas, la ciudadanía y la activa participación de los jóvenes para propiciar el desarrollo integral de la juventud.",721-2284,(787) 722-8615,,"Parque de Santurce,Calle Los Angeles #670",Santurce,,0,http://www.oaj.pr.gov,1,2014-09-10 12:58:25.418-07,2014-09-10 12:58:25.418-07
111,Oficina de Gerencia y Presupuesto (OGP),"Ley Núm. 147 de 18 de junio de 1980, conocida como ""Ley Orgánica de la Oficina de Gerencia y Presupuesto"", según enmendada por la Ley Núm. 110 de 3 de agosto de 1995, para re-denominar la agencia como Oficina de Gerencia y Presupuesto, añadir nuevas funciones, crear el Comité del Gobernador sobre Auditoría y el Comité del Gobernador sobre Sistemas de Información (COGSI); Ley Núm. 93 de 20 de agosto de 1997, para aumentar la aportación automática al Fondo Presupuestario y al Fondo de Emergencia al uno por ciento del total de las rentas netas del año fiscal anterior y la Ley Núm. 74 de 2 de mayo de 2000, para ampliar las funciones del (COGSI). La Oficina de Gerencia y Presupuesto asiste y asesora al Gobernador y a las tres ramas de Gobierno en la administración y uso de los recursos públicos y otros aspectos gerenciales; para promover un gobierno efectivo que garantice los resultados que los ciudadanos valoran.","",(787) 721-8329,,#254 Calle Cruz Esquina Calle Tetuán,Viejo San Juan,,0,http://www.ogp.pr.gov,1,2014-09-10 12:58:25.418-07,2014-09-10 12:58:25.418-07
116,Oficina del Comisionado de Seguros (OCS),"Conforme a la Ley Núm. 133 del 8 de agosto de 2002 , la Oficina del Comisionado de Seguros es un ente que responde directamente&nbsp;al Gobernador o Gobernadora de Puerto Rico. Promover la solvencia, solidez, competitividad y el desarrollo de la industria de seguros como sector vital de la economía mediante el desarrollo de un ambiente de reglamentación y supervisión: ágil, innovador y flexible que propicie la satisfacción de las necesidades de seguros de la ciudadanía y la protección del interés público.",787-304-8686,787-304-6082,,"GAM Tower, Urb. Tabonuco, Suite 400",Guaynabo,,0,http://www.ocs.gobierno.pr,1,2014-09-10 12:58:25.419-07,2014-09-10 12:58:25.419-07
124,Oficina del Procurador de las Personas con Impedimentos (OPPI),"Ley Núm. 2 del 27 de septiembre de 1985, según enmendada, por la Ley Núm. 298 del 30 de agosto de 1999 y la Ley Núm. 9 del 5 de enero de 2002 que crea la Oficina del Procurador de las Personas con Impedimentos. Garantizar la protección rápida, efectiva y eficiente de los derechos de las personas con impedimentos para que alcancen una integración plena en todos los ámbitos de nuestra sociedad.","721-4299, 729-4299",(787) 721-2455,,670 Avenida Ponce de León,Miramar,,0,http://www.oppi.gobierno.pr,1,2014-09-10 12:58:25.42-07,2014-09-10 12:58:25.42-07
90,Departamento de Transportación y Obras Públicas (DTOP),"Se crea mediante la Constitución del Estado Libre Asociado de Puerto Rico del 25 de julio de 1952, Artículo IV, Sección 6; la Ley Núm. 6 del 24 de julio de 1952 y el Plan de Reorganización 6 de 1971. Desarrollar, conservar, administrar y reglamentar la infraestructura y sistemas para la transportación de personas, bienes y servicios de un modo seguro, rápido, sensible al ambiente y a la ciudadanía, duradero, eficiente y efectivo para promover la integración y el desarrollo económico del país y la calidad de vida de los ciudadanos.",(787) 723-1390,(787) 725-1620,,"Centro Gubernamental Minillas, Torre Sur, Piso 17, Ave.De Diego",Santurce,,0,http://www.dtop.gov.pr,1,2014-09-10 12:58:25.415-07,2014-09-10 12:58:25.415-07
95,Instituto de Cultura Puertorriqueña (ICP),"El Instituto de Cultura Puertorriqueña se crea por virtud de la Ley Núm. 89, de 21 de junio de 1955, según enmendada, como una entidad oficial, corporativa y autónoma. Su misión es establecer e implantar la política pública relacionada con la conservación, promoción, enriquecimiento y divulgación de las artes, las humanidades y los valores culturales del pueblo de Puerto Rico para un amplio y profundo conocimiento y aprecio de los mismos.",(787) 723-2115 / (787) 723-3720,(787) 723-5567,,"Antiguo Asilo de Beneficencia Calle Norzagaray Final, Frente al Cuartel de Ballajá",Viejo San Juan,,0,http://www.icp.pr.gov,1,2014-09-10 12:58:25.416-07,2014-09-10 12:58:25.416-07
99,Junta de Planificación (JP),"Ley Núm. 75 de 24 de junio de 1975, según enmendada, conocida como ""Ley Orgánica de la Junta de Planificación de Puerto Rico"", crea la Junta de Planificación adscrita a la Oficina de la Gobernadora. Enfrentar los retos para el desarrollo de una sociedad basada en una economía sustentable, conservando y protegiendo el ambiente para beneficio de las generaciones presentes y futuras.",(787) 727-4444 / (787) 722-1705,(787) 268-6858,,"Centro Gubernamental Minillas, Torre Norte, Piso 16",Santurce,,0,http://www.jp.gobierno.pr/,1,2014-09-10 12:58:25.417-07,2014-09-10 12:58:25.417-07
105,Oficina de Administración de los Tribunales (OAT),"","",(787) 766-9831,,Calle César González #677,San Juan,,0,http://www.ramajudicial.pr/sistema/oat.htm,1,2014-09-10 12:58:25.418-07,2014-09-10 12:58:25.418-07
110,Oficina de Gerencia de Permisos (OGPe),"La Oficina de Gerencia de Permisos (OGPe)&nbsp; es creada al amparo de la Ley 161 del 1 de diciembre de 2009 conocida como “Ley para la Reforma del Proceso de Permisos de Puerto Rico”.&nbsp;&nbsp; Dicha ley&nbsp; establece que la OGPe será la oficina encargada de emitir determinaciones finales y permisos, licencias, inspecciones, certificaciones y cualquier otra autorización o trámite que sea necesario para atender las solicitudes de la ciudadanía.&nbsp; Facilitar y propiciar el desarrollo integral, económico, social y físico sostenible de Puerto Rico que resultará en el crecimiento de más, mejores y diversas industrias y en la creación de empleos en el sector privado. ",(787) 728-3010 / 723-8380,(787) 728-8882,,Edif. Westernbank Plaza 268 Ave. Muñoz Rivera piso 18,San Jan PR,,918,http://sip.pr.gov,1,2014-09-10 12:58:25.418-07,2014-09-10 12:58:25.418-07
115,Oficina del Comisionado de Instituciones Financieras (OCIF),"Plan de Reorganización Núm. 3 del 22 de junio de 1994, que reorganiza el Departamento de Hacienda y mantiene adscrita esta Oficina al Departamento. Ley Núm. 4 de 11 de octubre de 1985 , según enmendada, Ley de la Oficina del Comisionado de Instituciones Financiera. Reglamentar, supervisar y fiscalizar el sistema financiero de Puerto Rico para asegurar su solvencia, solidez y competitividad mundial; propiciar el desarrollo socioeconómico del País y salvaguardar el interés público.",723-8004 / 723-4255,(787) 723-4042,,"Edificio Centro Europa, Ave. Ponce de León 1492, Piso 6",Santurce,,0,http://www.ocif.gobierno.pr,1,2014-09-10 12:58:25.419-07,2014-09-10 12:58:25.419-07
120,Oficina del Gobernador (La Fortaleza),<div>&nbsp;</div> <div>&nbsp;</div>,"",(787) 723-3287,,Calle Fortaleza #63,Viejo San Juan,,901,http://www.fortaleza.gobierno.pr,1,2014-09-10 12:58:25.42-07,2014-09-10 12:58:25.42-07
125,Oficina del Procurador de las Personas de Edad Avanzada (OPPEA),"El Plan Número 1 de Reestructuración, firmado el 22 de junio de 2011 crea la Oficina del Procurador (a) de las Personas Pensionadas y de la Tercera Edad (OPPTE).&nbsp; La OPPTE tendrá, entre otras funciones dispuestas en este Plan, atender e investigar los reclamos y velar por los derechos de todo pensionado, participante y/o beneficiario de los diversos sistemas de retiros públicos o privados, así como de las personas de la tercera edad en las áreas de la educación, planificación financiera, salud, seguridad, empleo, derechos civiles y políticos, legislación social, laboral y contributiva, vivienda, transportación, recreación, cultura y otras que le sean referidas por la OAP.&nbsp; Asimismo, tendrá la responsabilidad de establecer e implantar un programa de asistencia, orientación y asesoramiento para la protección de sus derechos; y la coordinación con las entidades correspondientes para que se provean los servicios necesarios para los mismos. Dicha Oficina será el organismo que fiscalizará la implantación y cumplimiento, por las agencias y entidades privadas, de la política pública dispuesta en la Ley Núm. 121 de 12 de julio de 1986, según enmendada, mejor conocida como la “Carta de Derechos de las Personas de la Edad Avanzada”, y toda legislación que esté en armonía con la política pública enunciada en virtud de la Ley Pública Núm. 89-73 de 14 de julio de 1965, según enmendada, conocida como “Older Americans Act of 1965”, en torno a este sector de la población.&nbsp;  Se declara, además, que dentro de dicha Oficina recaerán, simultáneamente, las facultades, funciones y deberes de la Oficina del Procurador de los Residentes en Establecimientos de Cuidado de Larga Duración para Personas de la Tercera Edad y a su vez, del correspondiente cargo, conforme a lo requerido y establecido en la Ley Pública Núm. 89-73 de 14 de julio de 1965, según enmendada, conocida como ""Older Americans Act of 1965"".",(787)721-6121 (721-5710 ó 721-4560),"Administración: (787) 725-2919, Planificación (787) 724-1152, Defensa y Ombudsman: (787) 724-3485, Región I: (787) 919-7935, División Legal: (787) 721-6510",,"Ave. Ponce de León, Pda 16, Edificio 1064, 3er nivel (Altos del edificio de Marshalls)",Santurce,,0,http://www.oppea.pr.gov/,1,2014-09-10 12:58:25.42-07,2014-09-10 12:58:25.42-07
130,Policía de Puerto Rico,"Ley Núm. 53 de 10 de junio de 1996, conocida como Ley de la Policía de Puerto Rico de 1996. Velar por la seguridad de los ciudadanos, reducir la incidencia criminal y la violación de las leyes para mantener el orden y la paz de nuestro pueblo. Garantizar la integración multisectorial de las agencias gubernamentales y propiciar la participación ciudadana en la prevención y control del crimen.",792-0002,(787) 781-0080,,"Ave F.D. Roosevelt 601, Cuartel General",Hato Rey,,0,http://www.policia.pr.gov,1,2014-09-10 12:58:25.421-07,2014-09-10 12:58:25.421-07
135,Universidad de Puerto Rico (UPR),"Ley Núm. 1 de 20 de enero de 1966, según enmendada, conocida como ""Ley de la Universidad de Puerto Rico"". La Universidad de Puerto Rico, es una institución pública de educación superior, con la encomienda de servir al pueblo de Puerto Rico, cónsona con los ideales democráticos de la sociedad puertorriqueña. La misión principal es transmitir e incrementar el saber mediante las ciencias y las artes y contribuir al desarrollo, cultivo y disfrute de los valores éticos de la cultura.",(787) 758-3350,(787) 758-3350,,"Administración Central UPR, Jardín Botánico Sur #1187, Calle Flamboyán",Rio Piedras,,0,http://www.upr.edu,1,2014-09-10 12:58:25.422-07,2014-09-10 12:58:25.422-07
113,Oficina de Servicios con Antelación al Juicio (OSAJ),"La Ley Núm. 177 de 12 de agosto de 1995, creó la Oficina de Servicios con Antelación al Juicio como una entidad autónoma, adscrita al Departamento de Corrección y Rehabilitación. La Oficina de Servicios con Antelación al Juicio evalúa a los imputados de delitos que conlleven fianza y somete al juez la información verificable sobre los antecedentes penales, perfil sociológico y socio-económico del imputado. Esta provee una recomendación precisa y confiable para que la magistratura determine la medida de libertad provisional a imponerse. Establece un sistema de seguimiento confiable que garantiza la seguridad de la comunidad y la comparecencia del imputado de delito, durante el proceso judicial mientras se le otorgue la libertad provisional. Establece un plan de condiciones dirigido a contribuir a la rehabilitación del cliente.","754-4266,1-800-603-6725",(787) 759-6553,,"Carretera #19, Km .05, Pueblo Viejo (Antiguas Facilidades de la Administracion de Instituciones Juveniles)",Guaynabo,,0,http://www.osaj.pr.gov,1,2014-09-10 12:58:25.419-07,2014-09-10 12:58:25.419-07
119,Oficina del Contralor Electoral (OCE),"Descripción: La Ley Núm. 222 de 18 de noviembre de 2011, según enmendada, mejor conocida como “Ley para la Fiscalización del Financiamiento de Campañas Políticas en Puerto Rico”, crea la Oficina del Contralor Electoral, a fin de establecer el marco legal y administrativo que regirá la legalidad, examen y evaluación de donativos y gastos para fines electorales.",787-332-2050,787-777-8737,,"235 Ave. Arterial Hostos,Edif. Capital Center Torre Norte, Piso 15","San Juan, PR",,918,http://contralorelectoral.gov.pr,1,2014-09-10 12:58:25.419-07,2014-09-10 12:58:25.419-07
123,Oficina del Procurador de la Salud (OPS),"<div>El Plan de Reorganización Núm. 1 de 2010, Plan de Reorganización de las Procuradurías, crea la Oficina del Procurador de la Salud, como el organismo en la Rama Ejecutiva que será responsable de atender y viabilizar la solución de problemas, necesidades y reclamos de pacientes de la Reforma de Salud, Medicare y Medicaid, que reciban los servicios médico-hospitalarios de los proveedores de servicios de salud, así también como los servicios provistos por la Corporación del Fondo del Seguro del Estado, la Administración de Compensación por Accidentes de Automóviles y cualquier otro organismo público o privado, o proveedor de servicios de salud contratados por éstos, que reciba o administre fondos del Gobierno de Puerto Rico y el Gobierno de Estados Unidos de América, para proveer servicios de salud. Asimismo, fiscalizará el cumplimiento de la Carta de Derechos y Responsabilidades del Paciente, establecida en la Ley Núm. 194 de 25 de agosto de 2000, según enmendada. Este plan deroga la Ley Núm. 11 de 11 de abril de 2001, según enmendada.</div>",787-977-0909; Para Radicar Querellas: 787-977-1100,787-977-0915,,"1215 Ave. Ponce de León, Parada 18",Santurce,,0,http://www.ops.pr.gov,1,2014-09-10 12:58:25.42-07,2014-09-10 12:58:25.42-07
128,Oficina Estatal de Conservación Histórica (OECH),"Ley Núm. 183 del 21 de agosto de 2000, Ley Orgánica de la Oficina de Conservación Histórica de Puerto Rico. Proteger la integridad del patrimonio histórico de nuestro país, en particular los recursos arquitectónicos y arqueológicos; promover su rescate y conservación y educar a la sociedad sobre la importancia de preservar tales estructuras como evidencia del pasado.",(787) 722-3622,(787) 721-3773,,"Calle Norzagaray Final, Esq. calle Morovis, Cuartel de Ballajá, 3er Piso",Viejo San Juan,,0,http://www.oech.pr.gov,1,2014-09-10 12:58:25.421-07,2014-09-10 12:58:25.421-07
131,Salud Correccional (Dpto. Corrección),"El 22 de agosto de 2005, la Administración de Corrección y la ""Correctional Health Services Corporation"" (CHSC), una corporación privada sin fines de lucro, organizada el 11 de diciembre de 1997, firmaron un contrato administrativo para que esta última se encargue desde el 1 de septiembre de 2005, de administrar y proveer los servicios de salud a la población confinada del País. El Programa de Salud Correccional (PSC) posee autonomía fiscal, conforme con la Orden Administrativa Núm. 99 del Departamento de Salud de Puerto Rico. Mediante la Orden Ejecutiva Núm. OE-2005-49, fue transferido a la Administración de Corrección, conforme a la orden judicial del caso Morales Feliciano, fechada 26 de enero de 2004. La Administración de Corrección mantiene el manejo del presupuesto y de cualquier fondo público que se le otorgue. ",X - 2302 / 2602,(787) 759-7327,,Edif. Antiguo Hospital Psiquiatría Centro Médico,Rio Piedras,,0,"",1,2014-09-10 12:58:25.421-07,2014-09-10 12:58:25.421-07
121,Oficina del Inspector General de Permisos (OIGPe),"<div>Ley Núm. 161 del 1 de diciembre de 2009, para crear la “Ley para la Reforma del Proceso de Permisos de Puerto Rico”; crear la Oficina del Inspector General de Permisos, definir sus funciones, facultades y obligaciones y disponer en torno a su organización; disponer en torno a la revisión administrativa y judicial de las decisiones tomadas conforme a esta Ley; crear la figura del Profesional Autorizado, definir su composición, sus funciones, facultades y obligaciones, y disponer en torno a su autorización.</div>",787-722-7070,"",,"Centro Gubernamental Roberto Sánchez Vilella,Edificio Norte (Piso 15-Oficina 1501), Ave. De Diego, Parada 22,",Santurce,,940,"",1,2014-09-10 12:58:25.42-07,2014-09-10 12:58:25.42-07
126,Oficina del Procurador del Ciudadano (OMBUDSMAN),"Ley Núm. 134 de 30 de junio de 1977, según enmendada, conocida como ""Ley del Procurador de Ciudadano (Ombudsman)"", la Ley Núm. 432 del 2 de diciembre de 2000 que crea los cargos de Procuradores Especializados y la Ley Núm. 454 del 28 de diciembre de 2000 que crea el cargo de Procurador de Pequeños Negocios. Contribuir a mejorar los procedimientos administrativos y para garantizar al ciudadano un trato justo, rápido, adecuado y libre de perjuicio por los organismos gubernamentales del Estado Libre Asociado de Puerto Rico.",(787) 724-7373,(787) 724-7386,,"Ave Ponce de León, Parada 27½, Suite 103, Edif. Mercantil Plaza",Santurce,,0,http://www.ombudsmanpr.com/,1,2014-09-10 12:58:25.42-07,2014-09-10 12:58:25.42-07
132,Sistema de Retiro Para Maestros (SRM),"Proveer seguridad económica a los maestros, mediante un fondo de pensión para que cada uno, al jubilarse tenga un ingreso garantizado. Administrar eficaz y eficientemente el fondo de anualidades y pensiones, desarrollar estrategias de inversión que redunden en solvencia económica al sistema y a la proyección actuarial. Custodia, administra y solicita los recursos que anualmente se consignan en el Presupuesto General de Gastos para las Leyes Especiales.",(787) 777-1414,(787) 759-2882,,"235 Ave.Arterial Hostos, Edif. Capital Center, Torre Norte",Hato Rey,,0,http://www.srm.pr.gov,1,2014-09-10 12:58:25.421-07,2014-09-10 12:58:25.421-07
122,Oficina del Inspector General del Gobierno de Puerto Rico (OIG),"<div>La Ley Núm. 42 de 16 de abril de 2010, conocida como ""Ley del Inspector General del Gobierno de Puerto Rico"", creó la Oficina del Inspector General del Gobierno de Puerto Rico y la adscribió a la Oficina del Gobernador. Establecer un sistema integrado y coordinado de auditorías, estudios y evaluaciones preventivas en los organismos gubernamentales con miras a erradicar la redundancia y burocracia en la gestión pública, así como para optimizar el uso de los recursos y evitar el uso indebido de los mismos. De la misma manera, para eliminar la actividad corruptiva, así como para identificar aquellos funcionarios que no sepan manejar los recursos públicos de manera adecuada y que estén en busca de lucro personal. Establecer altos niveles de transparencia, honestidad e integridad en la gestión pública para poder rescatar y devolverle al pueblo la confianza en sus instituciones gubernamentales. Esto mediante el establecimiento de esfuerzos de prevención y fiscalización en cuanto al uso de fondos públicos.</div>",787-523-4900,"787-523-4901, 787-523-4902",,"235 Ave. Arterial Hostos, Torre Norte, Suite # 616","San Juan, PR",,918,http://www.oig.pr.gov,1,2014-09-10 12:58:25.42-07,2014-09-10 12:58:25.42-07
127,Oficina del Procurador del Veterano (OPV),"Ley Núm. 57 de 27 de junio de 1987 , según enmendada, conocida como Ley de la Oficina del Procurador del Veterano. Mediante la Ley 105 del 27 de agosto de 1994 la agencia se adscribe a la Oficina del Gobernador y se convierte en Administrado Individual. Servir de instrumento de coordinación y acción para atender los problemas y reclamos de los veteranos en diferentes áreas del quehacer humano y para establecer y llevar a cabo programas de asistencia, orientación y asesoramiento para la protección de sus derechos y beneficios.",(787) 758-5760,(787) 758-5788,,"Ave. Ponce de León, Edif. Mercantil Plaza, Piso 4, Oficina 401",Hato Rey,,0,http://www.opv.pr.gov,1,2014-09-10 12:58:25.421-07,2014-09-10 12:58:25.421-07
133,Sistemas de Información de Justicia Criminal (SIJC),"",787-729-2121,787-729-2261,,"Calle Olimpo, Esq. Axtmayer, Edificio Anexo, Piso 4",Miramar,,0,http://www.sijc.gobierno.pr,1,2014-09-10 12:58:25.422-07,2014-09-10 12:58:25.422-07
129,Panel sobre el Fiscal Especial Independiente (FEI),"Ley Núm. 2 de 23 de febrero de 1988 , según enmendada, crea la Oficina del Panel Sobre el Fiscal Especial Independiente y el cargo del Fiscal Especial Independiente. Servir de agente investigador sobre conductas delictivas de funcionarios públicos y preservar la integridad de los funcionarios e instituciones públicas del Estado Libre Asociado de Puerto Rico.","787-722-1037, 787-722-1035",787-945-7639,,"Ave. Ponce de León #2, Edificio Mercantil Plaza, Piso 10, Oficina 1000","Hato Rey, PR",,918,"",1,2014-09-10 12:58:25.421-07,2014-09-10 12:58:25.421-07
134,Tribunal Supremo de Puerto Rico,"",787-723-6033,787-725-4910,,"Avenida Ponce de León, Pda.8",Puerta de Tierra,,0,http://www.ramajudicial.pr/sistema/supremo/index.htm,1,2014-09-10 12:58:25.422-07,2014-09-10 12:58:25.422-07
6,Compañía de Turismo de Puerto Rico (Dpto. Desarrollo Económico),La Ley de Desarrollo Turístico de Puerto Rico del 1993 fue establecida para proveer al Gobierno de Puerto Rico las herramientas necesarias para desarrollar una infraestructura de clase mundial en respuesta a la creciente demanda de más facilidades para acomodar una nueva generación de negocios y visitantes turísticos.,721-2898 / 721-1629,(787) 722-6238,Maritere.Colon@tourism.pr.gov,"Edif. La Princesa #2, Paseo La Princesa",Viejo San Juan,PR,00902-3960,http://www.seepuertorico.com,1,2014-09-10 09:37:30.314-07,2014-09-10 13:42:59.663-07
7,Compañia de Comercio y Exportación de Puerto Rico (Dpto. Desarrollo Económico),"La Ley 323 de 28 de diciembre de 2003, según enmendada, crea la Compañía de Comercio y Exportación de Puerto Rico (CCE), una corporación pública adscrita al Departamento de Desarrollo Económico y Comercio de Puerto Rico, (conocida en inglés como Puerto Rico Trade and Export Company).&nbsp; La Ley 323, supra, dispuso los poderes y deberes de la CCE, transfirió las operaciones y activos de la Administración de Fomento Comercial y de la Corporación para el Desarrollo de las Exportaciones de Puerto Rico a esta nueva Corporación.&nbsp;&nbsp;  La Compañía de Comercio y Exportación es la entidad gubernamental que establece la política pública respecto al desarrollo del comercio, con énfasis en las pequeñas y medianas empresas, donde intervienen todos los sectores productivos de la Isla, incluyendo el de las organizaciones sin fines de lucro, para que sean competitivas tanto a nivel local como internacional, con el propósito de fortalecer la economía de Puerto Rico y propiciar la creación y retención de empleos.",787-282-7753,(787) 294-0718,pedro.galarza@cce.pr.gov,"Edif. New San Juan 159, Ave. Chardón, Hato Rey",Hato Rey,PR,00919-5009,http://www.comercioyexportacion.com,1,2014-09-10 09:37:30.314-07,2014-09-10 13:48:43.968-07
